{"type":"FeatureCollection","features":[{"type":"Feature","geometry":{"type":"Polygon","coordinates":[[[24.935655,60.17132],[24.935657,60.171303],[24.93565,60.171285],[24.935632,60.171268],[24.935606,60.171257],[24.935585,60.171247],[24.935547,60.171239],[24.935323,60.171241],[24.935363,60.171639],[24.935377,60.171622],[24.935655,60.17132]]]},"properties":{"c":"park"}},{"type":"Feature","geometry":{"type":"Polygon","coordinates":[[[24.937007,60.169474],[24.936273,60.169193],[24.936138,60.169143],[24.935895,60.169071],[24.935822,60.16908],[24.9357,60.169168],[24.936074,60.169294],[24.936229,60.169347],[24.936775,60.169545],[24.936819,60.169539],[24.936876,60.169526],[24.936924,60.169509],[24.937007,60.169474]]]},"properties":{"c":"park"}},{"type":"Feature","geometry":{"type":"Polygon","coordinates":[[[24.947039,60.178147],[24.947033,60.178197],[24.947019,60.178334],[24.947016,60.178372],[24.947083,60.178374],[24.94717,60.178376],[24.947546,60.178387],[24.947598,60.178388],[24.947737,60.178392],[24.947973,60.178398],[24.948095,60.178402],[24.948132,60.178403],[24.948174,60.178404],[24.94846,60.17841],[24.948482,60.17841],[24.948684,60.178414],[24.948689,60.178364],[24.948697,60.178293],[24.948707,60.178189],[24.948169,60.178174],[24.948146,60.178174],[24.948128,60.178173],[24.948079,60.178172],[24.947773,60.178165],[24.947714,60.178164],[24.947194,60.178151],[24.947135,60.178149],[24.947039,60.178147]]]},"properties":{"c":"park"}},{"type":"Feature","geometry":{"type":"Polygon","coordinates":[[[24.949431,60.173182],[24.949594,60.173299],[24.949673,60.173373],[24.949949,60.173658],[24.950016,60.173682],[24.950094,60.173698],[24.950142,60.173694],[24.950228,60.173655],[24.95027,60.173626],[24.950315,60.17358],[24.95038,60.173368],[24.950393,60.173203],[24.949431,60.173182]]]},"properties":{"c":"park"}},{"type":"Feature","geometry":{"type":"Polygon","coordinates":[[[24.938612,60.166482],[24.938277,60.166722],[24.938509,60.166802],[24.938741,60.166882],[24.939044,60.166987],[24.939378,60.166748],[24.938612,60.166482]]]},"properties":{"c":"park"}},{"type":"Feature","geometry":{"type":"Polygon","coordinates":[[[24.939348,60.165275],[24.941418,60.165996],[24.9402,60.166869],[24.939526,60.16665],[24.938696,60.166368],[24.938149,60.166174],[24.938149,60.166116],[24.939348,60.165275]]]},"properties":{"c":"park"}},{"type":"Feature","geometry":{"type":"Polygon","coordinates":[[[24.94439,60.16714],[24.944804,60.167151],[24.944927,60.167192],[24.945085,60.167197],[24.9454,60.167206],[24.94559,60.167293],[24.945886,60.167304],[24.94589,60.167273],[24.945952,60.167231],[24.947755,60.167279],[24.949365,60.167301],[24.949639,60.167296],[24.949641,60.167276],[24.949656,60.167276],[24.949911,60.167282],[24.949988,60.167283],[24.95017,60.167288],[24.950458,60.167295],[24.950637,60.167299],[24.950879,60.167302],[24.950902,60.167357],[24.950881,60.167547],[24.950872,60.16762],[24.950866,60.167686],[24.950862,60.167724],[24.950856,60.167775],[24.950519,60.167769],[24.950448,60.167767],[24.950096,60.167759],[24.950013,60.167757],[24.949603,60.167747],[24.944238,60.167618],[24.944282,60.167171],[24.94439,60.16714]]]},"properties":{"c":"park"}},{"type":"Feature","geometry":{"type":"Polygon","coordinates":[[[24.942569,60.167508],[24.942567,60.167513],[24.942573,60.167517],[24.942583,60.167519],[24.942938,60.16756],[24.942938,60.167556],[24.942878,60.167514],[24.942809,60.167439],[24.942778,60.167382],[24.942772,60.167376],[24.942761,60.167378],[24.942569,60.167508]]]},"properties":{"c":"grass"}},{"type":"Feature","geometry":{"type":"Polygon","coordinates":[[[24.945062,60.170206],[24.945006,60.170204],[24.945004,60.170226],[24.944861,60.170223],[24.944867,60.170153],[24.944911,60.170154],[24.94493,60.169937],[24.944892,60.169937],[24.944899,60.169861],[24.944784,60.169857],[24.944782,60.169878],[24.944777,60.169877],[24.944774,60.169913],[24.944778,60.169913],[24.944776,60.169933],[24.944764,60.169933],[24.944749,60.170102],[24.944758,60.170102],[24.944757,60.170114],[24.944754,60.170114],[24.944751,60.170148],[24.944764,60.170149],[24.944762,60.170163],[24.944759,60.170163],[24.944754,60.17022],[24.944744,60.17022],[24.94474,60.170265],[24.944987,60.170271],[24.945059,60.170243],[24.945062,60.170206]]]},"properties":{"c":"grass"}},{"type":"Feature","geometry":{"type":"Polygon","coordinates":[[[24.939053,60.166197],[24.939246,60.166253],[24.939372,60.166197],[24.939475,60.166102],[24.939394,60.166068],[24.939099,60.166112],[24.939053,60.166197]]]},"properties":{"c":"park"}},{"type":"Feature","geometry":{"type":"Polygon","coordinates":[[[24.941885,60.170789],[24.941876,60.170862],[24.942498,60.170874],[24.942511,60.170752],[24.942509,60.170748],[24.942503,60.170744],[24.942495,60.170741],[24.942315,60.170741],[24.942252,60.170766],[24.942238,60.170769],[24.942122,60.170765],[24.942121,60.170779],[24.941947,60.170774],[24.941954,60.170715],[24.941907,60.170715],[24.941899,60.170717],[24.941893,60.170724],[24.941885,60.170789]]]},"properties":{"c":"grass"}},{"type":"Feature","geometry":{"type":"Polygon","coordinates":[[[24.940524,60.17069],[24.940508,60.170693],[24.940496,60.170701],[24.940483,60.170822],[24.941103,60.170837],[24.941109,60.170764],[24.941113,60.170699],[24.941092,60.170692],[24.94105,60.17069],[24.941046,60.170735],[24.940871,60.170732],[24.940773,60.17073],[24.940752,60.170726],[24.940729,60.170715],[24.940713,60.170708],[24.940693,60.170699],[24.940677,60.170695],[24.940524,60.17069]]]},"properties":{"c":"grass"}},{"type":"Feature","geometry":{"type":"Polygon","coordinates":[[[24.950315,60.174048],[24.950322,60.174065],[24.950273,60.174093],[24.95024,60.174118],[24.950215,60.174145],[24.9501,60.174031],[24.950155,60.174039],[24.950224,60.174044],[24.950315,60.174048]]]},"properties":{"c":"grass"}},{"type":"Feature","geometry":{"type":"Polygon","coordinates":[[[24.949904,60.173862],[24.94998,60.173851],[24.950013,60.173856],[24.950053,60.173865],[24.950134,60.173898],[24.950183,60.173924],[24.950226,60.173956],[24.950263,60.173986],[24.950191,60.173982],[24.950122,60.173971],[24.950049,60.173947],[24.949967,60.173908],[24.949904,60.173862]]]},"properties":{"c":"grass"}},{"type":"Feature","geometry":{"type":"Polygon","coordinates":[[[24.949817,60.173899],[24.949988,60.174046],[24.950142,60.174222],[24.95012,60.174223],[24.950066,60.174211],[24.950025,60.174199],[24.949984,60.174183],[24.949922,60.174154],[24.949866,60.174122],[24.949823,60.174089],[24.949782,60.174046],[24.949769,60.174006],[24.949773,60.173965],[24.949786,60.173931],[24.949801,60.173913],[24.949817,60.173899]]]},"properties":{"c":"grass"}},{"type":"Feature","geometry":{"type":"Polygon","coordinates":[[[24.950126,60.170122],[24.950682,60.170136],[24.950698,60.169985],[24.950679,60.169985],[24.950063,60.169969],[24.950048,60.17012],[24.950126,60.170122]]]},"properties":{"c":"park"}},{"type":"Feature","geometry":{"type":"Polygon","coordinates":[[[24.950627,60.170693],[24.950639,60.170568],[24.950082,60.170555],[24.950056,60.170554],[24.950044,60.170678],[24.950627,60.170693]]]},"properties":{"c":"park"}},{"type":"Feature","geometry":{"type":"Polygon","coordinates":[[[24.950002,60.171022],[24.949622,60.171012],[24.949616,60.171064],[24.949536,60.171817],[24.949916,60.171827],[24.949996,60.171074],[24.950002,60.171022]]]},"properties":{"c":"park"}},{"type":"Feature","geometry":{"type":"Polygon","coordinates":[[[24.943578,60.17435],[24.943973,60.174346],[24.944035,60.174242],[24.944049,60.174165],[24.94406,60.174103],[24.943879,60.174104],[24.943872,60.174238],[24.943596,60.174235],[24.943578,60.17435]]]},"properties":{"c":"park"}},{"type":"Feature","geometry":{"type":"Polygon","coordinates":[[[24.950648,60.175941],[24.950427,60.17594],[24.950423,60.176057],[24.950463,60.176056],[24.950508,60.176052],[24.950554,60.176043],[24.950593,60.176027],[24.950622,60.176006],[24.950637,60.175988],[24.950647,60.175963],[24.950648,60.175941]]]},"properties":{"c":"grass"}},{"type":"Feature","geometry":{"type":"Polygon","coordinates":[[[24.950504,60.176823],[24.950352,60.176821],[24.950336,60.176802],[24.950337,60.176725],[24.950377,60.176726],[24.950439,60.176739],[24.950474,60.176755],[24.950502,60.176789],[24.950504,60.176823]]]},"properties":{"c":"grass"}},{"type":"Feature","geometry":{"type":"Polygon","coordinates":[[[24.949745,60.176798],[24.949896,60.1768],[24.949933,60.176716],[24.949888,60.176715],[24.949823,60.176725],[24.949786,60.176742],[24.949756,60.176775],[24.949745,60.176798]]]},"properties":{"c":"grass"}},{"type":"Feature","geometry":{"type":"Polygon","coordinates":[[[24.949988,60.176048],[24.949997,60.175931],[24.949993,60.17591],[24.949959,60.175889],[24.94978,60.175884],[24.94978,60.175925],[24.949783,60.175952],[24.949795,60.175979],[24.949816,60.176001],[24.949849,60.176023],[24.949895,60.176036],[24.94994,60.176045],[24.949988,60.176048]]]},"properties":{"c":"grass"}},{"type":"Feature","geometry":{"type":"Polygon","coordinates":[[[24.952417,60.178536],[24.952416,60.178545],[24.952413,60.17859],[24.952403,60.178849],[24.952458,60.178849],[24.952923,60.178859],[24.952932,60.178657],[24.952842,60.178626],[24.952847,60.178543],[24.952417,60.178536]]]},"properties":{"c":"park"}},{"type":"Feature","geometry":{"type":"Polygon","coordinates":[[[24.950991,60.176834],[24.951433,60.176848],[24.951475,60.176825],[24.951045,60.176698],[24.950752,60.176691],[24.950757,60.176647],[24.950392,60.17664],[24.950393,60.176626],[24.950377,60.176625],[24.950364,60.176696],[24.950419,60.176701],[24.950476,60.176714],[24.950521,60.176734],[24.950559,60.176763],[24.950577,60.176792],[24.950612,60.176821],[24.95067,60.176826],[24.950692,60.176827],[24.950681,60.176822],[24.950674,60.176814],[24.950675,60.176805],[24.950682,60.176798],[24.950695,60.176793],[24.950713,60.176791],[24.950727,60.176791],[24.950742,60.176791],[24.950757,60.176793],[24.950771,60.176798],[24.950779,60.176806],[24.95078,60.176814],[24.950775,60.176821],[24.95076,60.176828],[24.950991,60.176834]]]},"properties":{"c":"grass"}},{"type":"Feature","geometry":{"type":"Polygon","coordinates":[[[24.950015,60.175482],[24.95007,60.174964],[24.950088,60.174827],[24.950106,60.174582],[24.949807,60.174566],[24.94436,60.174418],[24.944125,60.176252],[24.945241,60.176125],[24.945617,60.176074],[24.945775,60.176053],[24.945841,60.176045],[24.945906,60.176038],[24.946258,60.175994],[24.946326,60.175987],[24.946396,60.175978],[24.946745,60.175936],[24.947839,60.175796],[24.948639,60.175696],[24.950015,60.175482]]]},"properties":{"c":"park"}},{"type":"Feature","geometry":{"type":"Polygon","coordinates":[[[24.944823,60.178504],[24.944837,60.178595],[24.944893,60.178618],[24.946428,60.17904],[24.946475,60.179053],[24.946547,60.178998],[24.944823,60.178504]]]},"properties":{"c":"park"}},{"type":"Feature","geometry":{"type":"Polygon","coordinates":[[[24.947914,60.174317],[24.948834,60.174346],[24.948856,60.174169],[24.947936,60.17414],[24.947914,60.174317]]]},"properties":{"c":"park"}},{"type":"Feature","geometry":{"type":"Polygon","coordinates":[[[24.942941,60.176378],[24.942983,60.176443],[24.94322,60.176386],[24.943495,60.176295],[24.943536,60.175981],[24.943384,60.175979],[24.942826,60.176039],[24.942777,60.176366],[24.942941,60.176378]]]},"properties":{"c":"park"}},{"type":"Feature","geometry":{"type":"Polygon","coordinates":[[[24.944034,60.175404],[24.944027,60.175432],[24.943961,60.175431],[24.943916,60.175455],[24.943853,60.175568],[24.943798,60.175656],[24.943721,60.17572],[24.943645,60.175769],[24.943552,60.175808],[24.943416,60.175856],[24.943328,60.17587],[24.943212,60.175874],[24.943092,60.175874],[24.94301,60.17587],[24.942902,60.175852],[24.942812,60.175829],[24.942714,60.175791],[24.942636,60.175744],[24.942562,60.175693],[24.942501,60.175631],[24.942464,60.175562],[24.942451,60.175501],[24.942579,60.174767],[24.942947,60.174278],[24.943057,60.174267],[24.94317,60.174197],[24.943283,60.17421],[24.943343,60.174285],[24.943484,60.174342],[24.943578,60.17435],[24.943973,60.174346],[24.944035,60.174242],[24.944187,60.174243],[24.944034,60.175404]]]},"properties":{"c":"park"}},{"type":"Feature","geometry":{"type":"Polygon","coordinates":[[[24.943578,60.1648],[24.943863,60.164652],[24.943815,60.164858],[24.943747,60.165339],[24.943703,60.165347],[24.94304,60.16512],[24.943048,60.165068],[24.943477,60.164764],[24.943578,60.1648]]]},"properties":{"c":"park"}},{"type":"Feature","geometry":{"type":"Polygon","coordinates":[[[24.936249,60.172961],[24.936186,60.172933],[24.935717,60.173093],[24.935619,60.173159],[24.935563,60.173235],[24.93604,60.173307],[24.936249,60.172961]]]},"properties":{"c":"grass"}},{"type":"Feature","geometry":{"type":"Polygon","coordinates":[[[24.945345,60.173981],[24.94531,60.174326],[24.946261,60.174349],[24.946296,60.174005],[24.945345,60.173981]]]},"properties":{"c":"park"}},{"type":"Feature","geometry":{"type":"Polygon","coordinates":[[[24.935941,60.172607],[24.935522,60.172228],[24.935473,60.172484],[24.935581,60.172538],[24.935941,60.172607]]]},"properties":{"c":"grass"}},{"type":"Feature","geometry":{"type":"Polygon","coordinates":[[[24.935194,60.172869],[24.935602,60.17297],[24.935751,60.172889],[24.935384,60.172826],[24.935194,60.172869]]]},"properties":{"c":"grass"}},{"type":"Feature","geometry":{"type":"Polygon","coordinates":[[[24.935684,60.172757],[24.935896,60.17281],[24.935907,60.172804],[24.935771,60.172737],[24.935684,60.172757]]]},"properties":{"c":"grass"}},{"type":"Feature","geometry":{"type":"Polygon","coordinates":[[[24.935427,60.172816],[24.935775,60.172876],[24.935878,60.17282],[24.93565,60.172765],[24.935427,60.172816]]]},"properties":{"c":"grass"}},{"type":"Feature","geometry":{"type":"Polygon","coordinates":[[[24.936295,60.171698],[24.935977,60.171678],[24.935917,60.171762],[24.935741,60.171934],[24.935984,60.171989],[24.936192,60.172097],[24.936295,60.171698]]]},"properties":{"c":"grass"}},{"type":"Feature","geometry":{"type":"Polygon","coordinates":[[[24.93558,60.173435],[24.935384,60.173331],[24.93534,60.1734],[24.93558,60.173435]]]},"properties":{"c":"grass"}},{"type":"Feature","geometry":{"type":"Polygon","coordinates":[[[24.937597,60.173789],[24.937668,60.174411],[24.937623,60.174475],[24.937571,60.174474],[24.936425,60.174445],[24.936308,60.174441],[24.935714,60.174425],[24.935591,60.174411],[24.935554,60.174406],[24.936089,60.173456],[24.93604,60.173307],[24.93613,60.173338],[24.936199,60.173584],[24.936506,60.173629],[24.936564,60.173637],[24.937597,60.173789]]]},"properties":{"c":"park"}},{"type":"Feature","geometry":{"type":"Polygon","coordinates":[[[24.937935,60.167229],[24.937993,60.167187],[24.938339,60.167304],[24.938682,60.16742],[24.93862,60.167464],[24.937935,60.167229]]]},"properties":{"c":"grass"}},{"type":"Feature","geometry":{"type":"Polygon","coordinates":[[[24.949438,60.172578],[24.949483,60.172579],[24.949493,60.172478],[24.949998,60.172489],[24.949991,60.172534],[24.949985,60.172619],[24.950336,60.172629],[24.950445,60.172629],[24.950474,60.17235],[24.95042,60.17235],[24.950414,60.172405],[24.95033,60.172403],[24.950317,60.172544],[24.950163,60.17254],[24.950176,60.172402],[24.949457,60.172385],[24.949438,60.172578]]]},"properties":{"c":"grass"}},{"type":"Feature","geometry":{"type":"Polygon","coordinates":[[[24.949428,60.172675],[24.949476,60.172673],[24.949471,60.172745],[24.949629,60.172748],[24.949619,60.172819],[24.949844,60.172823],[24.949844,60.172762],[24.949966,60.172765],[24.949974,60.172692],[24.950438,60.172705],[24.95041,60.17297],[24.950359,60.17297],[24.950364,60.172919],[24.95028,60.172917],[24.950293,60.172778],[24.950149,60.172774],[24.950135,60.172915],[24.949407,60.172898],[24.949428,60.172675]]]},"properties":{"c":"grass"}},{"type":"Feature","geometry":{"type":"Polygon","coordinates":[[[24.951507,60.172001],[24.951475,60.172395],[24.951633,60.172449],[24.951711,60.172519],[24.95214,60.172508],[24.952194,60.172038],[24.952033,60.172034],[24.952078,60.172149],[24.951982,60.172197],[24.951872,60.172184],[24.951869,60.172014],[24.951507,60.172001]]]},"properties":{"c":"grass"}},{"type":"Feature","geometry":{"type":"Polygon","coordinates":[[[24.951943,60.173988],[24.951949,60.173957],[24.952124,60.173858],[24.952328,60.173779],[24.952585,60.173763],[24.952595,60.173891],[24.952583,60.174004],[24.951943,60.173988]]]},"properties":{"c":"grass"}},{"type":"Feature","geometry":{"type":"Polygon","coordinates":[[[24.950758,60.173393],[24.950655,60.173391],[24.950668,60.173256],[24.950669,60.173246],[24.95067,60.173237],[24.950674,60.173201],[24.951589,60.173223],[24.952215,60.173234],[24.953029,60.173251],[24.953023,60.17331],[24.952794,60.173303],[24.952692,60.1733],[24.952682,60.173506],[24.952491,60.173502],[24.952303,60.173468],[24.952132,60.173356],[24.952019,60.173284],[24.950746,60.173232],[24.950758,60.173393]]]},"properties":{"c":"grass"}},{"type":"Feature","geometry":{"type":"Polygon","coordinates":[[[24.952652,60.171382],[24.952648,60.171407],[24.952636,60.171457],[24.953045,60.171475],[24.952902,60.171432],[24.952849,60.171394],[24.952741,60.171385],[24.952652,60.171382]]]},"properties":{"c":"grass"}},{"type":"Feature","geometry":{"type":"Polygon","coordinates":[[[24.952679,60.171011],[24.952682,60.170988],[24.952682,60.170899],[24.953127,60.170914],[24.952996,60.170947],[24.95284,60.171008],[24.952793,60.171015],[24.952679,60.171011]]]},"properties":{"c":"grass"}},{"type":"Feature","geometry":{"type":"Polygon","coordinates":[[[24.950867,60.171416],[24.951088,60.171423],[24.951222,60.171427],[24.951253,60.171428],[24.951271,60.171428],[24.951316,60.17143],[24.951443,60.171434],[24.951647,60.17144],[24.951716,60.170869],[24.951133,60.170851],[24.950939,60.170845],[24.950901,60.171145],[24.950867,60.171416]]]},"properties":{"c":"grass"}},{"type":"Feature","geometry":{"type":"Polygon","coordinates":[[[24.940886,60.177199],[24.940848,60.177237],[24.940599,60.17783],[24.940585,60.17789],[24.940623,60.177903],[24.941412,60.177496],[24.940886,60.177199]]]},"properties":{"c":"grass"}},{"type":"Feature","geometry":{"type":"Polygon","coordinates":[[[24.937481,60.175991],[24.936564,60.175968],[24.936508,60.176078],[24.936446,60.176178],[24.936386,60.176256],[24.93653,60.176258],[24.936533,60.176242],[24.936844,60.176249],[24.936842,60.176266],[24.936928,60.176268],[24.936928,60.176251],[24.937323,60.17626],[24.937321,60.176277],[24.937473,60.176279],[24.937498,60.176176],[24.937463,60.176175],[24.937477,60.176108],[24.937481,60.175991]]]},"properties":{"c":"grass"}},{"type":"Feature","geometry":{"type":"Polygon","coordinates":[[[24.937487,60.175968],[24.937464,60.175826],[24.937502,60.175826],[24.937484,60.17573],[24.937445,60.17573],[24.937432,60.175674],[24.936681,60.175657],[24.936659,60.175783],[24.936635,60.175871],[24.936608,60.175947],[24.937487,60.175968]]]},"properties":{"c":"grass"}},{"type":"Feature","geometry":{"type":"Polygon","coordinates":[[[24.937421,60.175365],[24.937371,60.175364],[24.937369,60.175384],[24.937103,60.175377],[24.937105,60.175357],[24.937014,60.175355],[24.937012,60.175376],[24.936773,60.17537],[24.936775,60.175349],[24.936671,60.175347],[24.936671,60.175355],[24.936654,60.175355],[24.936659,60.175488],[24.936651,60.175633],[24.937426,60.175652],[24.937392,60.175531],[24.937387,60.175484],[24.937428,60.175483],[24.937421,60.175365]]]},"properties":{"c":"grass"}},{"type":"Feature","geometry":{"type":"Polygon","coordinates":[[[24.938228,60.174713],[24.938202,60.174686],[24.938178,60.17467],[24.938147,60.174658],[24.938111,60.174652],[24.937811,60.174644],[24.937859,60.174814],[24.937895,60.17482],[24.938228,60.174713]]]},"properties":{"c":"grass"}},{"type":"Feature","geometry":{"type":"Polygon","coordinates":[[[24.938226,60.174742],[24.937941,60.174831],[24.938005,60.175054],[24.938194,60.175059],[24.938226,60.174742]]]},"properties":{"c":"grass"}},{"type":"Feature","geometry":{"type":"Polygon","coordinates":[[[24.937432,60.175209],[24.937403,60.175207],[24.937437,60.175064],[24.936902,60.175047],[24.936874,60.175051],[24.936801,60.175125],[24.936645,60.175296],[24.936645,60.175307],[24.936781,60.175311],[24.936783,60.175293],[24.937018,60.175299],[24.937016,60.175317],[24.937107,60.175319],[24.937109,60.1753],[24.937377,60.175307],[24.937375,60.175326],[24.937421,60.175327],[24.937432,60.175209]]]},"properties":{"c":"grass"}},{"type":"Feature","geometry":{"type":"Polygon","coordinates":[[[24.936828,60.175042],[24.936611,60.175037],[24.936612,60.175044],[24.936593,60.175045],[24.936637,60.175238],[24.93665,60.175238],[24.936733,60.175145],[24.93683,60.175048],[24.936828,60.175042]]]},"properties":{"c":"grass"}},{"type":"Feature","geometry":{"type":"Polygon","coordinates":[[[24.937797,60.174878],[24.937597,60.174942],[24.937572,60.175026],[24.937841,60.175034],[24.937797,60.174878]]]},"properties":{"c":"grass"}},{"type":"Feature","geometry":{"type":"Polygon","coordinates":[[[24.937688,60.174733],[24.937685,60.174746],[24.937659,60.174746],[24.937608,60.174911],[24.937825,60.174842],[24.937794,60.174736],[24.937755,60.174735],[24.937754,60.174748],[24.937724,60.174747],[24.937725,60.174734],[24.937688,60.174733]]]},"properties":{"c":"grass"}},{"type":"Feature","geometry":{"type":"Polygon","coordinates":[[[24.93746,60.174683],[24.937312,60.174755],[24.937197,60.174819],[24.937046,60.17492],[24.936915,60.175022],[24.936921,60.175024],[24.937444,60.175039],[24.937492,60.174878],[24.937527,60.17488],[24.937571,60.174733],[24.937512,60.174713],[24.93746,60.174683]]]},"properties":{"c":"grass"}},{"type":"Feature","geometry":{"type":"Polygon","coordinates":[[[24.936507,60.174613],[24.93661,60.174937],[24.936622,60.175017],[24.936845,60.175022],[24.936861,60.17502],[24.937008,60.174904],[24.937159,60.174807],[24.937291,60.174733],[24.937445,60.174654],[24.937456,60.174635],[24.936507,60.174613]]]},"properties":{"c":"grass"}},{"type":"Feature","geometry":{"type":"Polygon","coordinates":[[[24.935931,60.175329],[24.935209,60.175309],[24.935195,60.175317],[24.935184,60.175463],[24.935197,60.175609],[24.935239,60.175753],[24.935297,60.175904],[24.935468,60.176227],[24.935486,60.176233],[24.93615,60.176248],[24.936239,60.176174],[24.936346,60.176057],[24.93643,60.175943],[24.936492,60.175812],[24.936518,60.175659],[24.93651,60.175499],[24.936477,60.175398],[24.936455,60.175339],[24.936287,60.175336],[24.93628,60.175362],[24.936261,60.175381],[24.936235,60.17539],[24.936195,60.17539],[24.936129,60.175385],[24.936037,60.175366],[24.935931,60.175329]]]},"properties":{"c":"grass"}},{"type":"Feature","geometry":{"type":"Polygon","coordinates":[[[24.949623,60.167511],[24.949803,60.167515],[24.949813,60.167414],[24.949688,60.16741],[24.94969,60.167392],[24.949635,60.167391],[24.949623,60.167511]]]},"properties":{"c":"grass"}},{"type":"Feature","geometry":{"type":"Polygon","coordinates":[[[24.937925,60.17735],[24.937743,60.177383],[24.937606,60.177268],[24.937519,60.177169],[24.937521,60.177163],[24.937847,60.177097],[24.93787,60.177103],[24.937901,60.177163],[24.937916,60.177236],[24.937924,60.177282],[24.937925,60.17735]]]},"properties":{"c":"grass"}},{"type":"Feature","geometry":{"type":"Polygon","coordinates":[[[24.937397,60.176639],[24.937556,60.176641],[24.937571,60.176627],[24.937597,60.176469],[24.937598,60.176449],[24.937499,60.176443],[24.937473,60.176494],[24.937497,60.176497],[24.937483,60.176522],[24.937458,60.176518],[24.937428,60.176576],[24.937401,60.176599],[24.937397,60.176639]]]},"properties":{"c":"grass"}},{"type":"Feature","geometry":{"type":"Polygon","coordinates":[[[24.937376,60.176757],[24.937379,60.17671],[24.937386,60.176666],[24.937527,60.176671],[24.937507,60.176693],[24.937479,60.176714],[24.937441,60.176735],[24.937408,60.176747],[24.937376,60.176757]]]},"properties":{"c":"grass"}},{"type":"Feature","geometry":{"type":"Polygon","coordinates":[[[24.937391,60.176846],[24.93741,60.176902],[24.937505,60.177098],[24.937531,60.177094],[24.937536,60.177107],[24.937591,60.177096],[24.937613,60.177068],[24.937616,60.17704],[24.937611,60.177009],[24.937591,60.176974],[24.93756,60.176941],[24.937532,60.176916],[24.937492,60.176885],[24.937448,60.176862],[24.937391,60.176846]]]},"properties":{"c":"grass"}},{"type":"Feature","geometry":{"type":"Polygon","coordinates":[[[24.938351,60.176863],[24.938502,60.176991],[24.938492,60.177018],[24.938442,60.177029],[24.938331,60.177036],[24.938302,60.177032],[24.93832,60.176868],[24.938351,60.176863]]]},"properties":{"c":"grass"}},{"type":"Feature","geometry":{"type":"Polygon","coordinates":[[[24.937622,60.176673],[24.938025,60.176673],[24.938006,60.176825],[24.937858,60.176896],[24.937821,60.176925],[24.937726,60.176892],[24.937649,60.176846],[24.937608,60.176789],[24.937597,60.176737],[24.937622,60.176673]]]},"properties":{"c":"grass"}},{"type":"Feature","geometry":{"type":"Polygon","coordinates":[[[24.936338,60.17479],[24.936328,60.174795],[24.936319,60.174809],[24.936305,60.174842],[24.936297,60.17492],[24.93632,60.17492],[24.936328,60.174972],[24.93631,60.174972],[24.936324,60.175005],[24.936357,60.175047],[24.936431,60.175094],[24.936465,60.175105],[24.936478,60.175108],[24.93649,60.175105],[24.936493,60.175099],[24.936492,60.175083],[24.936479,60.175026],[24.936446,60.174953],[24.936406,60.174859],[24.936367,60.174797],[24.936356,60.174792],[24.936338,60.17479]]]},"properties":{"c":"grass"}},{"type":"Feature","geometry":{"type":"Polygon","coordinates":[[[24.935672,60.174628],[24.935707,60.174606],[24.935746,60.1746],[24.936224,60.174614],[24.936243,60.174619],[24.936259,60.174628],[24.936263,60.174644],[24.936239,60.174678],[24.936203,60.174764],[24.936187,60.174818],[24.936145,60.174839],[24.936083,60.174838],[24.936035,60.174812],[24.935827,60.17471],[24.93574,60.17468],[24.935682,60.174654],[24.935672,60.174628]]]},"properties":{"c":"grass"}},{"type":"Feature","geometry":{"type":"Polygon","coordinates":[[[24.938901,60.176317],[24.938939,60.176318],[24.938968,60.176319],[24.939,60.176323],[24.939027,60.17633],[24.939053,60.176342],[24.939071,60.176358],[24.939043,60.17636],[24.938998,60.176359],[24.93896,60.176353],[24.938934,60.176344],[24.93891,60.17633],[24.938901,60.176317]]]},"properties":{"c":"grass"}},{"type":"Feature","geometry":{"type":"Polygon","coordinates":[[[24.938589,60.176259],[24.938611,60.176271],[24.938629,60.176284],[24.938644,60.176299],[24.938651,60.176316],[24.938653,60.176337],[24.938649,60.176354],[24.938627,60.176391],[24.93858,60.176364],[24.938561,60.176348],[24.938554,60.176328],[24.938557,60.176299],[24.938571,60.176275],[24.938589,60.176259]]]},"properties":{"c":"grass"}},{"type":"Feature","geometry":{"type":"Polygon","coordinates":[[[24.938782,60.176397],[24.938797,60.176423],[24.93881,60.176437],[24.938827,60.176446],[24.938861,60.176457],[24.938895,60.176465],[24.938895,60.17645],[24.938891,60.176439],[24.938861,60.176419],[24.938824,60.176402],[24.938782,60.176397]]]},"properties":{"c":"grass"}},{"type":"Feature","geometry":{"type":"Polygon","coordinates":[[[24.942738,60.173077],[24.942712,60.173088],[24.942784,60.173141],[24.942813,60.173152],[24.942823,60.173149],[24.942851,60.173121],[24.942877,60.173095],[24.942877,60.173086],[24.942864,60.173081],[24.942738,60.173077]]]},"properties":{"c":"grass"}},{"type":"Feature","geometry":{"type":"Polygon","coordinates":[[[24.945103,60.173433],[24.945075,60.173487],[24.944902,60.173486],[24.944383,60.173716],[24.944388,60.173804],[24.944409,60.173818],[24.944425,60.173826],[24.944465,60.173827],[24.9458,60.173864],[24.945793,60.173817],[24.945103,60.173433]]]},"properties":{"c":"grass"}},{"type":"Feature","geometry":{"type":"Polygon","coordinates":[[[24.944499,60.173118],[24.944449,60.173105],[24.944398,60.173123],[24.944384,60.173641],[24.9444,60.173645],[24.944886,60.173437],[24.944893,60.173336],[24.944499,60.173118]]]},"properties":{"c":"grass"}},{"type":"Feature","geometry":{"type":"Polygon","coordinates":[[[24.945264,60.173967],[24.944846,60.174116],[24.944793,60.174146],[24.944613,60.17426],[24.944417,60.174343],[24.944412,60.174351],[24.944423,60.174357],[24.944547,60.17437],[24.944823,60.174376],[24.944888,60.174367],[24.945107,60.174331],[24.94518,60.174326],[24.945211,60.174319],[24.945233,60.174308],[24.945264,60.173967]]]},"properties":{"c":"grass"}},{"type":"Feature","geometry":{"type":"Polygon","coordinates":[[[24.944248,60.174341],[24.944296,60.174357],[24.944588,60.174232],[24.944673,60.174185],[24.944762,60.174113],[24.945297,60.17392],[24.944539,60.1739],[24.944521,60.173966],[24.944502,60.17397],[24.944368,60.173969],[24.944341,60.174182],[24.944318,60.174238],[24.944294,60.174279],[24.944248,60.174341]]]},"properties":{"c":"grass"}},{"type":"Feature","geometry":{"type":"Polygon","coordinates":[[[24.943431,60.174211],[24.943283,60.17421],[24.943343,60.174285],[24.943484,60.174342],[24.943578,60.17435],[24.943596,60.174235],[24.943872,60.174238],[24.943879,60.174104],[24.94406,60.174103],[24.944064,60.174081],[24.944048,60.174041],[24.944026,60.174025],[24.943995,60.174019],[24.943932,60.174017],[24.943909,60.174031],[24.943425,60.174014],[24.943424,60.174004],[24.943398,60.174003],[24.943329,60.174004],[24.943295,60.174008],[24.943275,60.174025],[24.943274,60.174044],[24.943279,60.174075],[24.943294,60.174091],[24.943445,60.174096],[24.943431,60.174211]]]},"properties":{"c":"grass"}},{"type":"Feature","geometry":{"type":"Polygon","coordinates":[[[24.943422,60.17312],[24.944136,60.173138],[24.944138,60.173032],[24.943441,60.173014],[24.943422,60.17312]]]},"properties":{"c":"grass"}},{"type":"Feature","geometry":{"type":"Polygon","coordinates":[[[24.936493,60.175188],[24.936517,60.175192],[24.936529,60.175199],[24.936533,60.17523],[24.936524,60.175235],[24.936513,60.175235],[24.936502,60.175229],[24.936483,60.175193],[24.936493,60.175188]]]},"properties":{"c":"grass"}},{"type":"Feature","geometry":{"type":"Polygon","coordinates":[[[24.937531,60.175306],[24.937533,60.175294],[24.937503,60.175292],[24.937507,60.175244],[24.937551,60.175245],[24.937591,60.175081],[24.937707,60.175081],[24.937691,60.175247],[24.937713,60.175247],[24.93769,60.175309],[24.937531,60.175306]]]},"properties":{"c":"grass"}},{"type":"Feature","geometry":{"type":"Polygon","coordinates":[[[24.937726,60.175858],[24.937706,60.175979],[24.937621,60.175975],[24.937619,60.175855],[24.937726,60.175858]]]},"properties":{"c":"grass"}},{"type":"Feature","geometry":{"type":"Polygon","coordinates":[[[24.937736,60.17568],[24.937726,60.175838],[24.937618,60.175837],[24.937616,60.175679],[24.937736,60.17568]]]},"properties":{"c":"grass"}},{"type":"Feature","geometry":{"type":"Polygon","coordinates":[[[24.938612,60.175873],[24.93863,60.175888],[24.938623,60.175913],[24.938607,60.175935],[24.93857,60.175947],[24.938532,60.17595],[24.938512,60.175939],[24.938521,60.175915],[24.938545,60.175886],[24.938574,60.175873],[24.938612,60.175873]]]},"properties":{"c":"grass"}},{"type":"Feature","geometry":{"type":"Polygon","coordinates":[[[24.937728,60.176227],[24.937698,60.176248],[24.937673,60.17626],[24.937644,60.176266],[24.937615,60.176269],[24.93759,60.17627],[24.937607,60.176252],[24.937628,60.176241],[24.93766,60.176232],[24.937689,60.176227],[24.937728,60.176227]]]},"properties":{"c":"grass"}},{"type":"Feature","geometry":{"type":"Polygon","coordinates":[[[24.937726,60.17637],[24.937686,60.17637],[24.937645,60.17636],[24.937611,60.176347],[24.937603,60.176337],[24.937589,60.176324],[24.937619,60.176325],[24.93765,60.176329],[24.937677,60.176338],[24.937706,60.17635],[24.937718,60.17636],[24.937726,60.17637]]]},"properties":{"c":"grass"}},{"type":"Feature","geometry":{"type":"Polygon","coordinates":[[[24.937826,60.176354],[24.937846,60.176345],[24.937863,60.176331],[24.937872,60.176314],[24.937875,60.176299],[24.937872,60.176287],[24.937866,60.176271],[24.937841,60.176282],[24.937827,60.176296],[24.937818,60.17631],[24.937813,60.176328],[24.937818,60.176342],[24.937826,60.176354]]]},"properties":{"c":"grass"}},{"type":"Feature","geometry":{"type":"Polygon","coordinates":[[[24.937841,60.176371],[24.93788,60.176367],[24.937916,60.176367],[24.937949,60.176372],[24.937979,60.176384],[24.938008,60.176396],[24.937961,60.176398],[24.937919,60.176395],[24.937888,60.176389],[24.937858,60.176381],[24.937841,60.176371]]]},"properties":{"c":"grass"}},{"type":"Feature","geometry":{"type":"Polygon","coordinates":[[[24.93903,60.176209],[24.93901,60.176229],[24.938984,60.176245],[24.938948,60.176257],[24.938922,60.176261],[24.938886,60.176264],[24.9389,60.176245],[24.938933,60.176227],[24.938958,60.17622],[24.938987,60.176213],[24.93903,60.176209]]]},"properties":{"c":"grass"}},{"type":"Feature","geometry":{"type":"Polygon","coordinates":[[[24.943575,60.176591],[24.943538,60.176619],[24.943599,60.176643],[24.943724,60.176592],[24.943944,60.17651],[24.944192,60.176457],[24.946153,60.176198],[24.947253,60.176068],[24.947726,60.17602],[24.948265,60.175976],[24.94884,60.175944],[24.948878,60.175974],[24.949146,60.175969],[24.949382,60.175989],[24.949461,60.176085],[24.949958,60.176091],[24.94994,60.176045],[24.94988,60.176044],[24.949849,60.176023],[24.949816,60.176001],[24.949795,60.175979],[24.949783,60.175952],[24.94978,60.175925],[24.94978,60.175884],[24.949545,60.175875],[24.949229,60.175826],[24.948661,60.175859],[24.947042,60.176052],[24.945964,60.176189],[24.944895,60.176328],[24.944126,60.176421],[24.943839,60.176489],[24.943575,60.176591]]]},"properties":{"c":"grass"}},{"type":"Feature","geometry":{"type":"Polygon","coordinates":[[[24.943337,60.176693],[24.943392,60.176669],[24.943441,60.176694],[24.943404,60.176723],[24.942493,60.177148],[24.942411,60.177143],[24.942381,60.177106],[24.943007,60.176822],[24.943337,60.176693]]]},"properties":{"c":"grass"}},{"type":"Feature","geometry":{"type":"Polygon","coordinates":[[[24.947194,60.174255],[24.946807,60.174247],[24.94666,60.174416],[24.947176,60.17441],[24.947194,60.174255]]]},"properties":{"c":"park"}},{"type":"Feature","geometry":{"type":"Polygon","coordinates":[[[24.938538,60.174894],[24.938583,60.174966],[24.938548,60.174973],[24.938537,60.174981],[24.938516,60.17498],[24.938524,60.174894],[24.938538,60.174894]]]},"properties":{"c":"grass"}},{"type":"Feature","geometry":{"type":"Polygon","coordinates":[[[24.938711,60.174638],[24.938678,60.174985],[24.938662,60.174986],[24.938568,60.174863],[24.938608,60.174832],[24.938583,60.17472],[24.93859,60.174685],[24.938609,60.174633],[24.938711,60.174638]]]},"properties":{"c":"grass"}},{"type":"Feature","geometry":{"type":"Polygon","coordinates":[[[24.935794,60.177399],[24.935665,60.177342],[24.935516,60.177283],[24.935516,60.177274],[24.935533,60.177271],[24.935677,60.177282],[24.93584,60.177295],[24.936018,60.177302],[24.936196,60.177303],[24.936056,60.177446],[24.935901,60.177363],[24.935794,60.177399]]]},"properties":{"c":"grass"}},{"type":"Feature","geometry":{"type":"Polygon","coordinates":[[[24.935663,60.176491],[24.935504,60.176281],[24.935502,60.176273],[24.935515,60.176269],[24.936013,60.176282],[24.936011,60.176297],[24.935798,60.17643],[24.935663,60.176491]]]},"properties":{"c":"grass"}},{"type":"Feature","geometry":{"type":"Polygon","coordinates":[[[24.935383,60.176268],[24.935205,60.176709],[24.935331,60.176623],[24.935598,60.17652],[24.935424,60.176279],[24.935409,60.176269],[24.935383,60.176268]]]},"properties":{"c":"grass"}},{"type":"Feature","geometry":{"type":"Polygon","coordinates":[[[24.93636,60.176292],[24.936159,60.176496],[24.935862,60.17672],[24.936189,60.177018],[24.936483,60.177247],[24.936677,60.177234],[24.936848,60.177219],[24.937055,60.177193],[24.937248,60.177162],[24.937431,60.177127],[24.937335,60.176929],[24.937296,60.176935],[24.937254,60.176812],[24.937252,60.17676],[24.937255,60.176713],[24.937292,60.176716],[24.937306,60.176638],[24.937371,60.17652],[24.93733,60.176516],[24.937385,60.176415],[24.937393,60.176416],[24.937404,60.176391],[24.937431,60.176393],[24.937449,60.176353],[24.937462,60.176318],[24.93732,60.176314],[24.937318,60.176334],[24.936928,60.176324],[24.93693,60.176304],[24.936839,60.176303],[24.936836,60.176323],[24.936515,60.176316],[24.936517,60.176295],[24.93636,60.176292]]]},"properties":{"c":"grass"}},{"type":"Feature","geometry":{"type":"Polygon","coordinates":[[[24.93613,60.169254],[24.936074,60.169294],[24.936229,60.169347],[24.936775,60.169545],[24.936819,60.169539],[24.936876,60.169526],[24.93613,60.169254]]]},"properties":{"c":"grass"}},{"type":"Feature","geometry":{"type":"Polygon","coordinates":[[[24.946981,60.173495],[24.946832,60.173498],[24.946713,60.173508],[24.946643,60.17354],[24.946616,60.173592],[24.946618,60.173632],[24.946638,60.17367],[24.946736,60.173701],[24.946807,60.173712],[24.946946,60.173691],[24.947048,60.173641],[24.947091,60.173596],[24.94709,60.17355],[24.947058,60.17352],[24.946981,60.173495]]]},"properties":{"c":"park"}},{"type":"Feature","geometry":{"type":"Polygon","coordinates":[[[24.947945,60.174068],[24.947768,60.17406],[24.947217,60.17404],[24.947194,60.174255],[24.947176,60.17441],[24.94763,60.17442],[24.947644,60.174309],[24.947914,60.174317],[24.947936,60.17414],[24.947945,60.174068]]]},"properties":{"c":"park"}},{"type":"Feature","geometry":{"type":"Polygon","coordinates":[[[24.937214,60.1729],[24.937168,60.173003],[24.937521,60.173011],[24.937674,60.172939],[24.937214,60.1729]]]},"properties":{"c":"grass"}},{"type":"Feature","geometry":{"type":"Polygon","coordinates":[[[24.945012,60.170177],[24.945065,60.170178],[24.945093,60.169923],[24.94504,60.169922],[24.945038,60.16994],[24.945003,60.169939],[24.94498,60.170155],[24.945014,60.170156],[24.945012,60.170177]]]},"properties":{"c":"grass"}},{"type":"Feature","geometry":{"type":"Polygon","coordinates":[[[24.943162,60.169815],[24.943062,60.169812],[24.943022,60.170129],[24.943083,60.170131],[24.943087,60.170103],[24.943126,60.170104],[24.943153,60.169891],[24.943118,60.16989],[24.943125,60.169831],[24.94316,60.169832],[24.943162,60.169815]]]},"properties":{"c":"grass"}},{"type":"Feature","geometry":{"type":"Polygon","coordinates":[[[24.943404,60.169823],[24.943227,60.169817],[24.943225,60.169834],[24.943264,60.169835],[24.943256,60.169894],[24.943217,60.169893],[24.94319,60.170106],[24.943236,60.170107],[24.943229,60.170163],[24.943227,60.170184],[24.943077,60.170179],[24.94308,60.170158],[24.943019,60.170156],[24.943016,60.170177],[24.9431,60.170224],[24.943352,60.170232],[24.943404,60.169823]]]},"properties":{"c":"grass"}},{"type":"Feature","geometry":{"type":"Polygon","coordinates":[[[24.936445,60.173226],[24.936402,60.173295],[24.936431,60.173299],[24.936473,60.17323],[24.936445,60.173226]]]},"properties":{"c":"grass"}},{"type":"Feature","geometry":{"type":"Polygon","coordinates":[[[24.93657,60.173034],[24.936528,60.173103],[24.936556,60.173108],[24.936599,60.173039],[24.93657,60.173034]]]},"properties":{"c":"grass"}},{"type":"Feature","geometry":{"type":"Polygon","coordinates":[[[24.936646,60.172851],[24.936825,60.172867],[24.936799,60.172939],[24.93662,60.172924],[24.936646,60.172851]]]},"properties":{"c":"grass"}}]}