{"type":"FeatureCollection","features":[{"type":"Feature","geometry":{"type":"LineString","coordinates":[[24.941327,60.171406],[24.941138,60.173195],[24.941101,60.173499],[24.94089,60.175447],[24.94087,60.17567],[24.940789,60.175973],[24.94078,60.175999]]},"properties":{"c":"rail"}},{"type":"Feature","geometry":{"type":"LineString","coordinates":[[24.940238,60.1753],[24.940198,60.175642],[24.940064,60.176665]]},"properties":{"c":"rail"}},{"type":"Feature","geometry":{"type":"LineString","coordinates":[[24.941151,60.17597],[24.940922,60.176352],[24.940688,60.1767]]},"properties":{"c":"rail"}},{"type":"Feature","geometry":{"type":"LineString","coordinates":[[24.938723,60.169702],[24.93893,60.169563],[24.939202,60.16938]]},"properties":{"c":"tram"}},{"type":"Feature","geometry":{"type":"LineString","coordinates":[[24.951773,60.167385],[24.951902,60.16739],[24.951997,60.167399],[24.952075,60.167418],[24.952128,60.167441],[24.952168,60.167468],[24.952193,60.167496],[24.952214,60.167538],[24.952216,60.167599]]},"properties":{"c":"tram"}},{"type":"Feature","geometry":{"type":"LineString","coordinates":[[24.947911,60.172197],[24.947821,60.172145],[24.947775,60.172124],[24.947725,60.172106],[24.947669,60.172093],[24.947599,60.172084],[24.947487,60.172077],[24.947301,60.172074],[24.94534,60.17202],[24.945269,60.172014],[24.945196,60.172007],[24.945146,60.171996],[24.945099,60.171982],[24.945058,60.171965],[24.945027,60.171948],[24.944998,60.171928],[24.944971,60.171903],[24.944953,60.171876],[24.944942,60.17184],[24.944939,60.171804],[24.944977,60.171463],[24.945019,60.171076]]},"properties":{"c":"tram"}},{"type":"Feature","geometry":{"type":"LineString","coordinates":[[24.938196,60.170051],[24.938308,60.169994],[24.938354,60.169979],[24.93842,60.169966],[24.93848,60.169957],[24.938551,60.169954],[24.938616,60.169958],[24.938685,60.169966],[24.93874,60.169979],[24.938823,60.170004],[24.938838,60.170009]]},"properties":{"c":"tram"}},{"type":"Feature","geometry":{"type":"LineString","coordinates":[[24.953365,60.169086],[24.95331,60.169093],[24.953278,60.169094],[24.953178,60.1691]]},"properties":{"c":"tram"}},{"type":"Feature","geometry":{"type":"LineString","coordinates":[[24.945019,60.171076],[24.94503,60.171001],[24.94505,60.170939],[24.945079,60.170898],[24.945114,60.17087],[24.945167,60.170843],[24.945226,60.170823],[24.945281,60.17081],[24.945335,60.170803],[24.9454,60.170802],[24.945465,60.170806],[24.945552,60.17082],[24.945647,60.170841]]},"properties":{"c":"tram"}},{"type":"Feature","geometry":{"type":"LineString","coordinates":[[24.937285,60.164434],[24.937171,60.164395],[24.936855,60.164286]]},"properties":{"c":"tram"}},{"type":"Feature","geometry":{"type":"LineString","coordinates":[[24.939631,60.175613],[24.939539,60.176424],[24.939404,60.177169],[24.939391,60.177238]]},"properties":{"c":"rail"}},{"type":"Feature","geometry":{"type":"LineString","coordinates":[[24.939471,60.175208],[24.939431,60.175595],[24.939376,60.176105],[24.939233,60.177457],[24.939207,60.177638],[24.939151,60.17804]]},"properties":{"c":"rail"}},{"type":"Feature","geometry":{"type":"LineString","coordinates":[[24.939471,60.175208],[24.93934,60.175602]]},"properties":{"c":"rail"}},{"type":"Feature","geometry":{"type":"LineString","coordinates":[[24.939184,60.177071],[24.939141,60.177448],[24.939129,60.17757]]},"properties":{"c":"rail"}},{"type":"Feature","geometry":{"type":"LineString","coordinates":[[24.941525,60.17141],[24.941334,60.1732],[24.941298,60.173501],[24.94111,60.175251],[24.94105,60.17553],[24.941009,60.175671]]},"properties":{"c":"rail"}},{"type":"Feature","geometry":{"type":"LineString","coordinates":[[24.95012,60.176622],[24.950167,60.176121]]},"properties":{"c":"tram"}},{"type":"Feature","geometry":{"type":"LineString","coordinates":[[24.950167,60.176121],[24.950176,60.176052],[24.950189,60.175906],[24.950215,60.175713],[24.950221,60.175654]]},"properties":{"c":"tram"}},{"type":"Feature","geometry":{"type":"LineString","coordinates":[[24.935776,60.171462],[24.935807,60.171424],[24.935827,60.171391],[24.935838,60.171366],[24.93584,60.171345],[24.935836,60.171317],[24.935824,60.171291],[24.935808,60.17127],[24.935782,60.171248],[24.935753,60.171228],[24.935715,60.171211],[24.93566,60.171192],[24.935607,60.17118],[24.935547,60.171172],[24.935486,60.171168],[24.935409,60.171165]]},"properties":{"c":"tram"}},{"type":"Feature","geometry":{"type":"LineString","coordinates":[[24.937054,60.170857],[24.936956,60.170911],[24.936886,60.170939],[24.936466,60.171099],[24.936414,60.171116]]},"properties":{"c":"tram"}},{"type":"Feature","geometry":{"type":"LineString","coordinates":[[24.950204,60.178151],[24.950408,60.178306],[24.950439,60.17834]]},"properties":{"c":"tram"}},{"type":"Feature","geometry":{"type":"LineString","coordinates":[[24.938083,60.169728],[24.938208,60.169763],[24.938267,60.169775],[24.938307,60.169779],[24.938367,60.169783],[24.938433,60.16978],[24.938502,60.169772],[24.938552,60.169761],[24.938597,60.169748],[24.938644,60.169729],[24.938694,60.169703],[24.93893,60.169563]]},"properties":{"c":"tram"}},{"type":"Feature","geometry":{"type":"LineString","coordinates":[[24.939589,60.169212],[24.939483,60.169267],[24.93944,60.169289],[24.939339,60.169337],[24.93926,60.169385],[24.939156,60.169455]]},"properties":{"c":"tram"}},{"type":"Feature","geometry":{"type":"LineString","coordinates":[[24.951158,60.167667],[24.951173,60.167607],[24.951185,60.167578],[24.951206,60.167551],[24.951232,60.167527],[24.951268,60.167504],[24.951301,60.167485],[24.951344,60.16747],[24.95139,60.167455],[24.951446,60.167445],[24.951512,60.16744],[24.951605,60.167439],[24.951758,60.167441]]},"properties":{"c":"tram"}},{"type":"Feature","geometry":{"type":"LineString","coordinates":[[24.942602,60.167122],[24.942678,60.167071],[24.942868,60.166944]]},"properties":{"c":"tram"}},{"type":"Feature","geometry":{"type":"LineString","coordinates":[[24.950204,60.178151],[24.950269,60.178213],[24.950288,60.178249],[24.950293,60.17829],[24.950288,60.178333]]},"properties":{"c":"tram"}},{"type":"Feature","geometry":{"type":"LineString","coordinates":[[24.950267,60.174358],[24.950174,60.174221],[24.950128,60.174161],[24.950086,60.174115],[24.950019,60.174048],[24.949867,60.173911]]},"properties":{"c":"tram"}},{"type":"Feature","geometry":{"type":"LineString","coordinates":[[24.951158,60.167667],[24.95117,60.167558],[24.95118,60.167525],[24.951195,60.167494],[24.951224,60.167464],[24.95126,60.167438],[24.951297,60.16742],[24.951343,60.167405],[24.951382,60.167397],[24.951443,60.167389],[24.951517,60.167384],[24.95159,60.167384],[24.951773,60.167385],[24.951906,60.167383],[24.951978,60.167378],[24.952032,60.167371],[24.952094,60.16736],[24.952164,60.167337],[24.952206,60.167311],[24.95224,60.167278],[24.952261,60.167245],[24.952273,60.167198],[24.952335,60.166545],[24.952379,60.16618],[24.952419,60.165789],[24.952446,60.165672],[24.952498,60.165506],[24.952532,60.165403],[24.952552,60.165316],[24.952592,60.164989],[24.952619,60.164783],[24.952649,60.164654],[24.952704,60.164516],[24.952785,60.164375],[24.952882,60.164239]]},"properties":{"c":"tram"}},{"type":"Feature","geometry":{"type":"LineString","coordinates":[[24.952677,60.167865],[24.953221,60.167884],[24.953298,60.16789],[24.953374,60.167903]]},"properties":{"c":"tram"}},{"type":"Feature","geometry":{"type":"LineString","coordinates":[[24.941189,60.168636],[24.941038,60.168575],[24.940989,60.168553],[24.940952,60.168534],[24.940896,60.168503],[24.940863,60.168481],[24.940838,60.168454],[24.940823,60.168427],[24.940811,60.168401],[24.940811,60.168376],[24.940823,60.168344],[24.940843,60.168315],[24.940869,60.168288],[24.940908,60.168253]]},"properties":{"c":"tram"}},{"type":"Feature","geometry":{"type":"LineString","coordinates":[[24.943845,60.165611],[24.943842,60.16563],[24.943822,60.165735],[24.943816,60.165794]]},"properties":{"c":"tram"}},{"type":"Feature","geometry":{"type":"LineString","coordinates":[[24.939247,60.16935],[24.939449,60.169218]]},"properties":{"c":"tram"}},{"type":"Feature","geometry":{"type":"LineString","coordinates":[[24.939247,60.16935],[24.939339,60.169299],[24.939408,60.169266],[24.939506,60.169218],[24.939568,60.169179],[24.93962,60.16915]]},"properties":{"c":"tram"}},{"type":"Feature","geometry":{"type":"LineString","coordinates":[[24.951011,60.168856],[24.951019,60.168799],[24.951027,60.168775],[24.951039,60.168742],[24.951048,60.168709],[24.951122,60.16796],[24.951158,60.167667]]},"properties":{"c":"tram"}},{"type":"Feature","geometry":{"type":"LineString","coordinates":[[24.942554,60.16531],[24.942684,60.16525],[24.942716,60.165236],[24.942736,60.165229],[24.942786,60.165215],[24.942844,60.165206],[24.942892,60.165203],[24.942985,60.165206],[24.943052,60.165216],[24.94314,60.165238]]},"properties":{"c":"tram"}},{"type":"Feature","geometry":{"type":"LineString","coordinates":[[24.950157,60.178163],[24.95013,60.178141],[24.950073,60.1781],[24.950037,60.178064]]},"properties":{"c":"tram"}},{"type":"Feature","geometry":{"type":"LineString","coordinates":[[24.950173,60.176623],[24.950165,60.176691],[24.95014,60.176952],[24.950129,60.177058]]},"properties":{"c":"tram"}},{"type":"Feature","geometry":{"type":"LineString","coordinates":[[24.939094,60.170136],[24.938826,60.170049],[24.938778,60.170035],[24.938697,60.170015],[24.938631,60.170003],[24.938564,60.170001],[24.938501,60.170001],[24.938443,60.170007],[24.938401,60.170014],[24.93833,60.170033],[24.938288,60.170048],[24.938247,60.170068],[24.938185,60.170104]]},"properties":{"c":"tram"}},{"type":"Feature","geometry":{"type":"LineString","coordinates":[[24.93881,60.170031],[24.938793,60.170025],[24.938189,60.169803],[24.938164,60.169792],[24.938105,60.16977]]},"properties":{"c":"tram"}},{"type":"Feature","geometry":{"type":"LineString","coordinates":[[24.938756,60.169725],[24.938705,60.169752],[24.938646,60.169783],[24.938584,60.169804],[24.938518,60.169818],[24.938459,60.169824],[24.938404,60.169827],[24.938354,60.169826],[24.938288,60.169819],[24.938247,60.169811],[24.938202,60.169799],[24.938169,60.169789],[24.938105,60.16977]]},"properties":{"c":"tram"}},{"type":"Feature","geometry":{"type":"LineString","coordinates":[[24.952964,60.169093],[24.95288,60.169091]]},"properties":{"c":"tram"}},{"type":"Feature","geometry":{"type":"LineString","coordinates":[[24.940994,60.168239],[24.940956,60.168271],[24.940921,60.168304],[24.940904,60.168327],[24.940891,60.168356],[24.940887,60.168382],[24.940891,60.168408],[24.940902,60.168434],[24.940922,60.168461],[24.940943,60.168481],[24.940977,60.168504],[24.941027,60.168529],[24.941111,60.168567],[24.941196,60.168602]]},"properties":{"c":"tram"}},{"type":"Feature","geometry":{"type":"LineString","coordinates":[[24.942602,60.167122],[24.942686,60.167074],[24.942805,60.167014],[24.942882,60.166975]]},"properties":{"c":"tram"}},{"type":"Feature","geometry":{"type":"LineString","coordinates":[[24.943231,60.166798],[24.942969,60.166964],[24.942929,60.166986]]},"properties":{"c":"tram"}},{"type":"Feature","geometry":{"type":"LineString","coordinates":[[24.941917,60.16605],[24.941872,60.16603],[24.941838,60.166014],[24.941816,60.166002],[24.941781,60.165973],[24.941771,60.165932],[24.941775,60.1659],[24.941782,60.165874],[24.941832,60.165828]]},"properties":{"c":"tram"}},{"type":"Feature","geometry":{"type":"LineString","coordinates":[[24.941917,60.16605],[24.941804,60.166011],[24.941549,60.16592],[24.941467,60.165892]]},"properties":{"c":"tram"}},{"type":"Feature","geometry":{"type":"LineString","coordinates":[[24.937327,60.164413],[24.939201,60.165068]]},"properties":{"c":"tram"}},{"type":"Feature","geometry":{"type":"LineString","coordinates":[[24.937285,60.164434],[24.937228,60.164409],[24.937184,60.164386],[24.937147,60.164362],[24.937124,60.164342],[24.937108,60.164314],[24.937101,60.164292],[24.9371,60.164262],[24.93712,60.164219],[24.937155,60.164184]]},"properties":{"c":"tram"}},{"type":"Feature","geometry":{"type":"LineString","coordinates":[[24.950656,60.169009],[24.950755,60.169003],[24.950853,60.168987],[24.950901,60.168967],[24.95094,60.168946],[24.950969,60.168924],[24.950986,60.168901],[24.951011,60.168856]]},"properties":{"c":"tram"}},{"type":"Feature","geometry":{"type":"LineString","coordinates":[[24.951321,60.169053],[24.951226,60.169042],[24.95117,60.169031],[24.951134,60.16902],[24.951095,60.169004],[24.951067,60.16899],[24.951043,60.168971],[24.951025,60.168954],[24.951013,60.168934],[24.951011,60.168925],[24.951004,60.168902],[24.951011,60.168856]]},"properties":{"c":"tram"}},{"type":"Feature","geometry":{"type":"LineString","coordinates":[[24.951321,60.169053],[24.95103,60.169046],[24.950752,60.169038],[24.949434,60.169005],[24.949225,60.169],[24.947427,60.168956],[24.945979,60.16892]]},"properties":{"c":"tram"}},{"type":"Feature","geometry":{"type":"LineString","coordinates":[[24.950656,60.169009],[24.950754,60.169011],[24.951101,60.16902],[24.951324,60.169023],[24.95199,60.16904],[24.95208,60.169043],[24.95306,60.169069]]},"properties":{"c":"tram"}},{"type":"Feature","geometry":{"type":"LineString","coordinates":[[24.953128,60.169071],[24.953279,60.169086],[24.953345,60.169107],[24.953396,60.169132]]},"properties":{"c":"tram"}},{"type":"Feature","geometry":{"type":"LineString","coordinates":[[24.953128,60.169071],[24.953279,60.169075]]},"properties":{"c":"tram"}},{"type":"Feature","geometry":{"type":"LineString","coordinates":[[24.950322,60.174351],[24.950362,60.174411],[24.950381,60.174452],[24.9504,60.174508],[24.950401,60.17457],[24.950277,60.175655],[24.950272,60.175715],[24.950251,60.175908],[24.950237,60.176053],[24.950226,60.176123]]},"properties":{"c":"tram"}},{"type":"Feature","geometry":{"type":"LineString","coordinates":[[24.950226,60.176123],[24.950173,60.176623]]},"properties":{"c":"tram"}},{"type":"Feature","geometry":{"type":"LineString","coordinates":[[24.939589,60.169212],[24.939287,60.169413]]},"properties":{"c":"tram"}},{"type":"Feature","geometry":{"type":"LineString","coordinates":[[24.949884,60.173868],[24.94995,60.173919],[24.949989,60.173941],[24.950032,60.17396],[24.950076,60.173975],[24.950122,60.173986],[24.950166,60.173994],[24.950226,60.173998],[24.950293,60.174002],[24.950554,60.174009],[24.950695,60.174012]]},"properties":{"c":"tram"}},{"type":"Feature","geometry":{"type":"LineString","coordinates":[[24.950724,60.174042],[24.950562,60.174035],[24.95031,60.174028],[24.950229,60.174026],[24.95018,60.174023],[24.950123,60.174016],[24.950073,60.174006],[24.950023,60.173995],[24.949974,60.173975],[24.949933,60.173952],[24.949867,60.173911]]},"properties":{"c":"tram"}},{"type":"Feature","geometry":{"type":"LineString","coordinates":[[24.944468,60.170508],[24.94463,60.170529],[24.944718,60.170538],[24.944805,60.170544],[24.944867,60.170547],[24.944917,60.170545],[24.944969,60.170541],[24.945016,60.170534]]},"properties":{"c":"tram"}},{"type":"Feature","geometry":{"type":"LineString","coordinates":[[24.945979,60.16892],[24.945831,60.168923],[24.945738,60.16893],[24.945666,60.168947]]},"properties":{"c":"tram"}},{"type":"Feature","geometry":{"type":"LineString","coordinates":[[24.935224,60.169997],[24.935842,60.170178],[24.936442,60.170305],[24.937232,60.170427]]},"properties":{"c":"subway"}},{"type":"Feature","geometry":{"type":"LineString","coordinates":[[24.940072,60.178416],[24.939998,60.178601],[24.939822,60.179044]]},"properties":{"c":"rail"}},{"type":"Feature","geometry":{"type":"LineString","coordinates":[[24.939943,60.17785],[24.939657,60.178564],[24.939531,60.17888],[24.939474,60.179021]]},"properties":{"c":"rail"}},{"type":"Feature","geometry":{"type":"LineString","coordinates":[[24.939975,60.175115],[24.939951,60.175386],[24.939959,60.175635],[24.939943,60.175983],[24.939916,60.1763]]},"properties":{"c":"rail"}},{"type":"Feature","geometry":{"type":"LineString","coordinates":[[24.941933,60.173032],[24.941702,60.175059],[24.941652,60.175266],[24.941581,60.175498],[24.94149,60.175709],[24.941442,60.175796]]},"properties":{"c":"rail"}},{"type":"Feature","geometry":{"type":"LineString","coordinates":[[24.94182,60.171417],[24.941621,60.173207],[24.941591,60.173503],[24.941417,60.175052],[24.941381,60.175201],[24.941321,60.175403]]},"properties":{"c":"rail"}},{"type":"Feature","geometry":{"type":"LineString","coordinates":[[24.941411,60.176007],[24.941074,60.176382]]},"properties":{"c":"rail"}},{"type":"Feature","geometry":{"type":"LineString","coordinates":[[24.941616,60.171413],[24.94143,60.173202],[24.941393,60.173501],[24.941204,60.175259],[24.94115,60.175535],[24.94111,60.175637]]},"properties":{"c":"rail"}},{"type":"Feature","geometry":{"type":"LineString","coordinates":[[24.940971,60.175985],[24.940743,60.176336],[24.940512,60.176702],[24.940385,60.176895],[24.940271,60.177068],[24.940025,60.177457],[24.939873,60.17768],[24.93973,60.177915]]},"properties":{"c":"rail"}},{"type":"Feature","geometry":{"type":"LineString","coordinates":[[24.939496,60.177174],[24.939328,60.177592]]},"properties":{"c":"rail"}},{"type":"Feature","geometry":{"type":"LineString","coordinates":[[24.940044,60.172611],[24.93978,60.175077],[24.939754,60.17526]]},"properties":{"c":"rail"}},{"type":"Feature","geometry":{"type":"LineString","coordinates":[[24.939672,60.175213],[24.939712,60.175626]]},"properties":{"c":"rail"}},{"type":"Feature","geometry":{"type":"LineString","coordinates":[[24.940077,60.175253],[24.940078,60.175391],[24.940068,60.175642],[24.940039,60.175904]]},"properties":{"c":"rail"}},{"type":"Feature","geometry":{"type":"LineString","coordinates":[[24.940238,60.1753],[24.940133,60.175642],[24.940039,60.175904],[24.939916,60.1763],[24.939805,60.176609],[24.939786,60.176675],[24.939779,60.176701],[24.939694,60.177182],[24.939621,60.177508],[24.939582,60.177619],[24.939471,60.177895],[24.939195,60.178584],[24.939038,60.178977]]},"properties":{"c":"rail"}},{"type":"Feature","geometry":{"type":"LineString","coordinates":[[24.940559,60.175812],[24.940426,60.176286],[24.939912,60.17745],[24.93973,60.177915]]},"properties":{"c":"rail"}},{"type":"Feature","geometry":{"type":"LineString","coordinates":[[24.940555,60.175061],[24.940587,60.175573]]},"properties":{"c":"rail"}},{"type":"Feature","geometry":{"type":"LineString","coordinates":[[24.93966,60.178347],[24.93955,60.178626],[24.939456,60.178853],[24.939389,60.179014]]},"properties":{"c":"rail"}},{"type":"Feature","geometry":{"type":"LineString","coordinates":[[24.940559,60.175812],[24.940487,60.176307],[24.940422,60.17669]]},"properties":{"c":"rail"}},{"type":"Feature","geometry":{"type":"LineString","coordinates":[[24.939715,60.177517],[24.939667,60.177628],[24.939557,60.177907],[24.939433,60.17823]]},"properties":{"c":"rail"}},{"type":"Feature","geometry":{"type":"LineString","coordinates":[[24.940555,60.175061],[24.940502,60.175567],[24.940457,60.17581],[24.94038,60.176076],[24.94033,60.176285]]},"properties":{"c":"rail"}},{"type":"Feature","geometry":{"type":"LineString","coordinates":[[24.939433,60.17823],[24.939393,60.178426],[24.939357,60.178613]]},"properties":{"c":"rail"}},{"type":"Feature","geometry":{"type":"LineString","coordinates":[[24.939449,60.178619],[24.939311,60.178841],[24.939184,60.179045]]},"properties":{"c":"rail"}},{"type":"Feature","geometry":{"type":"LineString","coordinates":[[24.952931,60.164249],[24.952834,60.164385],[24.952758,60.16453],[24.95271,60.164661],[24.952677,60.164787],[24.952647,60.16499],[24.952609,60.165317],[24.952584,60.165407],[24.952552,60.165509],[24.9525,60.165673],[24.952479,60.16579],[24.952441,60.166182],[24.952394,60.166547],[24.952326,60.167247],[24.952316,60.167301],[24.952303,60.167343],[24.952281,60.167392],[24.952261,60.167439],[24.95223,60.167511],[24.952216,60.167599],[24.952232,60.167708],[24.952246,60.167743],[24.95228,60.167777],[24.95232,60.1678],[24.952359,60.167817],[24.952413,60.167832],[24.952477,60.167846],[24.952542,60.167855],[24.952601,60.16786],[24.952677,60.167865]]},"properties":{"c":"tram"}},{"type":"Feature","geometry":{"type":"LineString","coordinates":[[24.945979,60.16892],[24.945548,60.16891],[24.944232,60.168879],[24.942902,60.168846],[24.942818,60.168844]]},"properties":{"c":"tram"}},{"type":"Feature","geometry":{"type":"LineString","coordinates":[[24.945997,60.168895],[24.947431,60.168929],[24.949229,60.168972],[24.949436,60.168977],[24.950656,60.169009]]},"properties":{"c":"tram"}},{"type":"Feature","geometry":{"type":"LineString","coordinates":[[24.944507,60.170542],[24.944279,60.170505],[24.944187,60.170492],[24.944062,60.170481],[24.943009,60.170457],[24.942532,60.170443],[24.941528,60.170422],[24.940405,60.170394],[24.940058,60.170386],[24.939952,60.17038],[24.939858,60.170372],[24.939746,60.170355],[24.939661,60.170335],[24.939576,60.170311],[24.939498,60.170285],[24.939343,60.170229],[24.939094,60.170136]]},"properties":{"c":"tram"}},{"type":"Feature","geometry":{"type":"LineString","coordinates":[[24.944468,60.170508],[24.94463,60.170539],[24.944769,60.170571],[24.94485,60.170597],[24.944968,60.170633],[24.945224,60.170713]]},"properties":{"c":"tram"}},{"type":"Feature","geometry":{"type":"LineString","coordinates":[[24.939136,60.170117],[24.939378,60.170208],[24.93953,60.170265],[24.939619,60.170292],[24.939691,60.170311],[24.939776,60.17033],[24.939862,60.170344],[24.939959,60.170352],[24.940057,60.170357],[24.940407,60.170367],[24.941244,60.170386]]},"properties":{"c":"tram"}},{"type":"Feature","geometry":{"type":"LineString","coordinates":[[24.93881,60.170031],[24.938794,60.170024],[24.938719,60.16999],[24.938679,60.169967],[24.93865,60.169942],[24.938624,60.169914],[24.93861,60.169885],[24.938606,60.169846],[24.938612,60.169815],[24.938622,60.169795],[24.938646,60.169767],[24.938673,60.16974],[24.938723,60.169702]]},"properties":{"c":"tram"}},{"type":"Feature","geometry":{"type":"LineString","coordinates":[[24.951758,60.167441],[24.951857,60.167445],[24.951925,60.167452],[24.951977,60.167461],[24.952023,60.167477],[24.952066,60.167497],[24.952103,60.16752],[24.952134,60.167549],[24.952155,60.167582],[24.952173,60.167624],[24.952184,60.167674],[24.952196,60.167707],[24.952222,60.16775],[24.952256,60.167785],[24.952295,60.16781],[24.952344,60.16783],[24.952395,60.167843],[24.952473,60.167856],[24.95254,60.16786],[24.9526,60.167863],[24.952677,60.167865]]},"properties":{"c":"tram"}},{"type":"Feature","geometry":{"type":"LineString","coordinates":[[24.94307,60.165187],[24.943178,60.165209],[24.943673,60.165383]]},"properties":{"c":"tram"}},{"type":"Feature","geometry":{"type":"LineString","coordinates":[[24.953406,60.171508],[24.95339,60.171612],[24.953311,60.172224],[24.953307,60.172332],[24.953116,60.173944],[24.95311,60.173974],[24.9531,60.174],[24.953087,60.174021],[24.953056,60.174045],[24.953029,60.174062],[24.952995,60.174079],[24.952954,60.174094],[24.952905,60.174106],[24.952847,60.174113],[24.952801,60.174115],[24.952745,60.174115],[24.952683,60.174112],[24.952619,60.174108],[24.952517,60.1741],[24.95239,60.174091],[24.950724,60.174042]]},"properties":{"c":"tram"}},{"type":"Feature","geometry":{"type":"LineString","coordinates":[[24.935529,60.169882],[24.936326,60.170017],[24.937152,60.170108],[24.937899,60.170172],[24.938826,60.170222],[24.940467,60.170261],[24.942152,60.170294],[24.94304,60.170342],[24.943677,60.170418],[24.944475,60.170538],[24.945184,60.170691],[24.945825,60.170821],[24.946604,60.17101],[24.947275,60.171231],[24.947809,60.171443],[24.948174,60.171674],[24.949342,60.172825],[24.949697,60.173174],[24.950425,60.173949],[24.950662,60.174452],[24.950768,60.174781],[24.950749,60.175368],[24.950683,60.176444]]},"properties":{"c":"subway"}},{"type":"Feature","geometry":{"type":"LineString","coordinates":[[24.945647,60.170841],[24.946102,60.170977],[24.946401,60.171072],[24.946581,60.171132],[24.946818,60.17122],[24.947088,60.171319],[24.947213,60.171378],[24.947298,60.171429]]},"properties":{"c":"tram"}},{"type":"Feature","geometry":{"type":"LineString","coordinates":[[24.94503,60.171001],[24.945046,60.170867],[24.945048,60.170824],[24.945044,60.170777],[24.945031,60.170742],[24.945005,60.170711],[24.944965,60.170682],[24.944921,60.170656],[24.944822,60.170618]]},"properties":{"c":"tram"}},{"type":"Feature","geometry":{"type":"LineString","coordinates":[[24.949867,60.173911],[24.949765,60.173819]]},"properties":{"c":"tram"}},{"type":"Feature","geometry":{"type":"LineString","coordinates":[[24.947911,60.172197],[24.947803,60.172115],[24.94771,60.172036],[24.947575,60.171894],[24.947468,60.171756],[24.947327,60.171511],[24.947292,60.17147],[24.947239,60.171431],[24.947148,60.171383],[24.947028,60.171333],[24.946804,60.171248],[24.94656,60.17116],[24.946365,60.171093],[24.946075,60.170997],[24.9454,60.170796],[24.945206,60.170739]]},"properties":{"c":"tram"}},{"type":"Feature","geometry":{"type":"LineString","coordinates":[[24.950724,60.174042],[24.95064,60.174045],[24.950568,60.174051],[24.950514,60.17406],[24.950471,60.174072],[24.95043,60.174086],[24.950387,60.174104],[24.950353,60.174125],[24.950327,60.174146],[24.950307,60.174171],[24.95029,60.1742],[24.950284,60.174229],[24.950284,60.174259],[24.950294,60.174295],[24.950322,60.174351]]},"properties":{"c":"tram"}},{"type":"Feature","geometry":{"type":"LineString","coordinates":[[24.93999,60.177078],[24.9398,60.177521],[24.939751,60.177637],[24.939636,60.177912],[24.939508,60.178246],[24.939357,60.178613]]},"properties":{"c":"rail"}},{"type":"Feature","geometry":{"type":"LineString","coordinates":[[24.941151,60.17597],[24.941007,60.17636],[24.940856,60.176731],[24.94077,60.176931],[24.940688,60.177117]]},"properties":{"c":"rail"}},{"type":"Feature","geometry":{"type":"LineString","coordinates":[[24.939943,60.17785],[24.939725,60.178198],[24.939449,60.178619]]},"properties":{"c":"rail"}},{"type":"Feature","geometry":{"type":"LineString","coordinates":[[24.940135,60.177624],[24.940024,60.177887],[24.939742,60.178575],[24.939559,60.179029]]},"properties":{"c":"rail"}},{"type":"Feature","geometry":{"type":"LineString","coordinates":[[24.940283,60.177485],[24.940117,60.177864]]},"properties":{"c":"rail"}},{"type":"Feature","geometry":{"type":"LineString","coordinates":[[24.940688,60.1767],[24.940364,60.177496]]},"properties":{"c":"rail"}},{"type":"Feature","geometry":{"type":"LineString","coordinates":[[24.940364,60.177496],[24.940206,60.177873]]},"properties":{"c":"rail"}},{"type":"Feature","geometry":{"type":"LineString","coordinates":[[24.940149,60.178009],[24.940065,60.178232],[24.939912,60.178593],[24.93986,60.17872],[24.939729,60.179045]]},"properties":{"c":"rail"}},{"type":"Feature","geometry":{"type":"LineString","coordinates":[[24.940206,60.177873],[24.940143,60.178239]]},"properties":{"c":"rail"}},{"type":"Feature","geometry":{"type":"LineString","coordinates":[[24.940057,60.178675],[24.940011,60.178802],[24.939902,60.179049]]},"properties":{"c":"rail"}},{"type":"Feature","geometry":{"type":"LineString","coordinates":[[24.940364,60.177496],[24.940241,60.177674],[24.940117,60.177864]]},"properties":{"c":"rail"}},{"type":"Feature","geometry":{"type":"LineString","coordinates":[[24.939496,60.177174],[24.939455,60.177411],[24.939412,60.177601],[24.939354,60.177735],[24.939252,60.17798]]},"properties":{"c":"rail"}},{"type":"Feature","geometry":{"type":"LineString","coordinates":[[24.93999,60.177078],[24.939912,60.17745],[24.939873,60.17768],[24.939825,60.177949]]},"properties":{"c":"rail"}},{"type":"Feature","geometry":{"type":"LineString","coordinates":[[24.953178,60.1691],[24.952964,60.169093]]},"properties":{"c":"tram"}},{"type":"Feature","geometry":{"type":"LineString","coordinates":[[24.940434,60.168654],[24.939888,60.169019],[24.939836,60.169053]]},"properties":{"c":"tram"}},{"type":"Feature","geometry":{"type":"LineString","coordinates":[[24.950421,60.176569],[24.950466,60.175625],[24.95037,60.174831],[24.950162,60.174413],[24.949786,60.174008],[24.948402,60.172802],[24.947923,60.172408],[24.947168,60.171727],[24.946784,60.171485],[24.946357,60.1713],[24.945779,60.171093],[24.945174,60.170924],[24.94447,60.170777],[24.943811,60.170686],[24.94305,60.170605],[24.942433,60.170571],[24.938866,60.170493],[24.937993,60.170469],[24.937232,60.170427],[24.936477,60.170362],[24.935808,60.170295],[24.935288,60.17022]]},"properties":{"c":"subway"}},{"type":"Feature","geometry":{"type":"LineString","coordinates":[[24.942219,60.173042],[24.942014,60.17489],[24.941978,60.175069],[24.941922,60.175293],[24.94183,60.175526],[24.941737,60.175735],[24.94169,60.175813]]},"properties":{"c":"rail"}},{"type":"Feature","geometry":{"type":"LineString","coordinates":[[24.942022,60.173034],[24.941827,60.174884],[24.94179,60.17507],[24.941742,60.175272],[24.94167,60.175503],[24.941586,60.175718],[24.941538,60.175805]]},"properties":{"c":"rail"}},{"type":"Feature","geometry":{"type":"LineString","coordinates":[[24.950267,60.174358],[24.950228,60.174279],[24.950222,60.174234],[24.950227,60.174197],[24.950237,60.174168],[24.950253,60.174143],[24.950287,60.174114],[24.950319,60.174091],[24.950358,60.17407],[24.950413,60.174049],[24.950458,60.174036],[24.950509,60.174025],[24.950557,60.174018],[24.950621,60.174014],[24.950695,60.174012]]},"properties":{"c":"tram"}},{"type":"Feature","geometry":{"type":"LineString","coordinates":[[24.942554,60.16531],[24.942668,60.165234],[24.942694,60.165228],[24.942725,60.165217],[24.942768,60.165203],[24.942828,60.165191],[24.942881,60.165185],[24.942924,60.165182],[24.942984,60.165181],[24.94307,60.165187]]},"properties":{"c":"tram"}},{"type":"Feature","geometry":{"type":"LineString","coordinates":[[24.945666,60.168947],[24.945625,60.168962],[24.945588,60.168982],[24.945545,60.169012],[24.945516,60.169049],[24.945502,60.169085],[24.945428,60.169704],[24.945406,60.169885]]},"properties":{"c":"tram"}},{"type":"Feature","geometry":{"type":"LineString","coordinates":[[24.938105,60.16977],[24.937385,60.169504],[24.936387,60.169133],[24.936242,60.169073],[24.93617,60.169043],[24.935975,60.168972]]},"properties":{"c":"tram"}},{"type":"Feature","geometry":{"type":"LineString","coordinates":[[24.938083,60.169728],[24.938195,60.169771],[24.938239,60.169787],[24.938824,60.170004],[24.938838,60.170009]]},"properties":{"c":"tram"}},{"type":"Feature","geometry":{"type":"LineString","coordinates":[[24.945573,60.168964],[24.945618,60.16894],[24.945661,60.168923],[24.945722,60.168908],[24.945792,60.1689],[24.945878,60.168893],[24.945997,60.168895]]},"properties":{"c":"tram"}},{"type":"Feature","geometry":{"type":"LineString","coordinates":[[24.945374,60.169805],[24.945394,60.169734],[24.945415,60.169647],[24.945436,60.169582],[24.945497,60.169078],[24.945506,60.169046],[24.945517,60.16902],[24.945541,60.168989],[24.945573,60.168964]]},"properties":{"c":"tram"}},{"type":"Feature","geometry":{"type":"LineString","coordinates":[[24.936018,60.168944],[24.936207,60.16902],[24.936275,60.169051],[24.936398,60.169103],[24.937417,60.169483],[24.938083,60.169728]]},"properties":{"c":"tram"}},{"type":"Feature","geometry":{"type":"LineString","coordinates":[[24.945066,60.170567],[24.945015,60.170574],[24.94497,60.170578],[24.944906,60.170579],[24.944873,60.170579],[24.944826,60.170575],[24.94477,60.17057],[24.94468,60.170561],[24.944507,60.170542]]},"properties":{"c":"tram"}},{"type":"Feature","geometry":{"type":"LineString","coordinates":[[24.945406,60.169885],[24.945351,60.17036],[24.945338,60.17041],[24.945319,60.170439],[24.945291,60.170469],[24.945252,60.170498],[24.945208,60.170523],[24.94517,60.170537],[24.945132,60.170552],[24.945066,60.170567]]},"properties":{"c":"tram"}},{"type":"Feature","geometry":{"type":"LineString","coordinates":[[24.945016,60.170534],[24.945057,60.170525],[24.945101,60.170512],[24.945144,60.170496],[24.94519,60.170473],[24.945224,60.170451],[24.945253,60.170425],[24.94527,60.170401],[24.945288,60.170368],[24.945296,60.170333],[24.945349,60.169917],[24.945355,60.169879],[24.945374,60.169805]]},"properties":{"c":"tram"}},{"type":"Feature","geometry":{"type":"LineString","coordinates":[[24.945224,60.170713],[24.945404,60.170764],[24.945647,60.170841]]},"properties":{"c":"tram"}},{"type":"Feature","geometry":{"type":"LineString","coordinates":[[24.938196,60.170051],[24.938331,60.169962],[24.93867,60.169739],[24.938723,60.169702]]},"properties":{"c":"tram"}},{"type":"Feature","geometry":{"type":"LineString","coordinates":[[24.945206,60.170739],[24.944822,60.170618],[24.944739,60.170594],[24.944625,60.170566],[24.944507,60.170542]]},"properties":{"c":"tram"}},{"type":"Feature","geometry":{"type":"LineString","coordinates":[[24.938185,60.170104],[24.937266,60.170716],[24.937054,60.170857]]},"properties":{"c":"tram"}},{"type":"Feature","geometry":{"type":"LineString","coordinates":[[24.936887,60.164262],[24.937205,60.164371],[24.937327,60.164413]]},"properties":{"c":"tram"}},{"type":"Feature","geometry":{"type":"LineString","coordinates":[[24.937215,60.1642],[24.937192,60.164228],[24.937179,60.164261],[24.937187,60.164291],[24.93719,60.164313],[24.937203,60.164334],[24.937226,60.164356],[24.937268,60.164384],[24.937327,60.164413]]},"properties":{"c":"tram"}},{"type":"Feature","geometry":{"type":"LineString","coordinates":[[24.950425,60.178478],[24.950421,60.178438],[24.950412,60.178402],[24.950394,60.178366],[24.950366,60.178332]]},"properties":{"c":"tram"}},{"type":"Feature","geometry":{"type":"LineString","coordinates":[[24.939747,60.176017],[24.939753,60.176089],[24.939719,60.176429],[24.939578,60.177175],[24.939497,60.17761],[24.939385,60.177885],[24.939106,60.178574],[24.938943,60.178971]]},"properties":{"c":"rail"}},{"type":"Feature","geometry":{"type":"LineString","coordinates":[[24.939287,60.169413],[24.938801,60.169739],[24.938761,60.169775],[24.938739,60.169809],[24.938729,60.169838],[24.93873,60.169868],[24.938745,60.169901],[24.938763,60.169932],[24.938795,60.169961],[24.938841,60.169991],[24.938889,60.170015],[24.939136,60.170117]]},"properties":{"c":"tram"}},{"type":"Feature","geometry":{"type":"LineString","coordinates":[[24.939836,60.169053],[24.939589,60.169212]]},"properties":{"c":"tram"}},{"type":"Feature","geometry":{"type":"LineString","coordinates":[[24.939202,60.16938],[24.939247,60.16935]]},"properties":{"c":"tram"}},{"type":"Feature","geometry":{"type":"LineString","coordinates":[[24.93962,60.16915],[24.939845,60.169002],[24.940449,60.1686]]},"properties":{"c":"tram"}},{"type":"Feature","geometry":{"type":"LineString","coordinates":[[24.939156,60.169455],[24.938756,60.169725],[24.93871,60.169754],[24.938364,60.169987],[24.938243,60.170066],[24.938185,60.170104]]},"properties":{"c":"tram"}},{"type":"Feature","geometry":{"type":"LineString","coordinates":[[24.939449,60.169218],[24.939802,60.168985],[24.940477,60.168537],[24.940544,60.168492],[24.940714,60.168379]]},"properties":{"c":"tram"}},{"type":"Feature","geometry":{"type":"LineString","coordinates":[[24.939825,60.178584],[24.939663,60.17899],[24.939644,60.179037]]},"properties":{"c":"rail"}},{"type":"Feature","geometry":{"type":"LineString","coordinates":[[24.93904,60.177562],[24.938654,60.178791],[24.938615,60.178913]]},"properties":{"c":"rail"}},{"type":"Feature","geometry":{"type":"LineString","coordinates":[[24.943083,60.16642],[24.943117,60.166431],[24.943183,60.166459],[24.943234,60.166483],[24.943271,60.166507],[24.943304,60.166532],[24.943335,60.16657],[24.94335,60.166611],[24.943351,60.16665],[24.943339,60.166688],[24.943318,60.16672],[24.943283,60.166755],[24.943231,60.166798]]},"properties":{"c":"tram"}},{"type":"Feature","geometry":{"type":"LineString","coordinates":[[24.941876,60.166001],[24.943083,60.16642]]},"properties":{"c":"tram"}},{"type":"Feature","geometry":{"type":"LineString","coordinates":[[24.943052,60.16644],[24.941917,60.16605]]},"properties":{"c":"tram"}},{"type":"Feature","geometry":{"type":"LineString","coordinates":[[24.942291,60.168832],[24.941877,60.168824],[24.941805,60.168821],[24.941735,60.168813],[24.941673,60.168802],[24.94162,60.16879],[24.941542,60.168764],[24.941469,60.168738],[24.941189,60.168636]]},"properties":{"c":"tram"}},{"type":"Feature","geometry":{"type":"LineString","coordinates":[[24.942818,60.168844],[24.942291,60.168832]]},"properties":{"c":"tram"}},{"type":"Feature","geometry":{"type":"LineString","coordinates":[[24.950168,60.178544],[24.950185,60.178486],[24.950202,60.178432],[24.950223,60.178374],[24.950232,60.178322]]},"properties":{"c":"tram"}},{"type":"Feature","geometry":{"type":"LineString","coordinates":[[24.950288,60.178333],[24.950279,60.178371],[24.950255,60.178435],[24.950239,60.178491],[24.950226,60.178549]]},"properties":{"c":"tram"}},{"type":"Feature","geometry":{"type":"LineString","coordinates":[[24.950366,60.178332],[24.950329,60.178295],[24.950157,60.178163]]},"properties":{"c":"tram"}},{"type":"Feature","geometry":{"type":"LineString","coordinates":[[24.950439,60.17834],[24.950468,60.178399],[24.950477,60.178441],[24.950476,60.17848]]},"properties":{"c":"tram"}},{"type":"Feature","geometry":{"type":"LineString","coordinates":[[24.950232,60.178322],[24.950236,60.178283],[24.950225,60.178239],[24.950202,60.178207],[24.950157,60.178163]]},"properties":{"c":"tram"}},{"type":"Feature","geometry":{"type":"LineString","coordinates":[[24.950221,60.175654],[24.950322,60.174759]]},"properties":{"c":"tram"}},{"type":"Feature","geometry":{"type":"LineString","coordinates":[[24.950037,60.178064],[24.950014,60.178036],[24.950001,60.178001],[24.949998,60.177966],[24.950011,60.17765],[24.950086,60.176951],[24.950112,60.17669],[24.95012,60.176622]]},"properties":{"c":"tram"}},{"type":"Feature","geometry":{"type":"LineString","coordinates":[[24.950129,60.177058],[24.950064,60.177651],[24.950051,60.177936],[24.950052,60.177979],[24.950061,60.178009],[24.950085,60.178046],[24.950117,60.178084],[24.950179,60.178131],[24.950204,60.178151]]},"properties":{"c":"tram"}},{"type":"Feature","geometry":{"type":"LineString","coordinates":[[24.949806,60.173799],[24.949884,60.173868]]},"properties":{"c":"tram"}},{"type":"Feature","geometry":{"type":"LineString","coordinates":[[24.950209,60.174188],[24.950322,60.174351]]},"properties":{"c":"tram"}},{"type":"Feature","geometry":{"type":"LineString","coordinates":[[24.949027,60.173165],[24.948447,60.172656],[24.947911,60.172197]]},"properties":{"c":"tram"}},{"type":"Feature","geometry":{"type":"LineString","coordinates":[[24.949765,60.173819],[24.949676,60.173739],[24.949088,60.173219],[24.949027,60.173165]]},"properties":{"c":"tram"}},{"type":"Feature","geometry":{"type":"LineString","coordinates":[[24.949075,60.173158],[24.949131,60.173207],[24.949722,60.173725],[24.949806,60.173799]]},"properties":{"c":"tram"}},{"type":"Feature","geometry":{"type":"LineString","coordinates":[[24.947799,60.172055],[24.947959,60.172187],[24.948157,60.172334],[24.948497,60.172642],[24.948725,60.172845]]},"properties":{"c":"tram"}},{"type":"Feature","geometry":{"type":"LineString","coordinates":[[24.949884,60.173868],[24.950071,60.174038],[24.950136,60.174097],[24.950177,60.174143],[24.950209,60.174188]]},"properties":{"c":"tram"}},{"type":"Feature","geometry":{"type":"LineString","coordinates":[[24.947298,60.171429],[24.947342,60.171468],[24.947373,60.171503],[24.947518,60.171746],[24.947625,60.171883],[24.947761,60.172024],[24.947799,60.172055]]},"properties":{"c":"tram"}},{"type":"Feature","geometry":{"type":"LineString","coordinates":[[24.953031,60.173988],[24.95305,60.173953],[24.953061,60.173918],[24.953226,60.172484],[24.953217,60.172377],[24.953215,60.17233],[24.953212,60.172304],[24.953214,60.172255],[24.953219,60.172223],[24.953259,60.171861],[24.95328,60.171782],[24.953311,60.171709],[24.953327,60.171667],[24.953336,60.17161],[24.953348,60.171505],[24.95341,60.170897]]},"properties":{"c":"tram"}},{"type":"Feature","geometry":{"type":"LineString","coordinates":[[24.95278,60.174084],[24.952852,60.174079],[24.952893,60.17407],[24.952933,60.174058],[24.952971,60.174041],[24.953006,60.174019],[24.953031,60.173988]]},"properties":{"c":"tram"}},{"type":"Feature","geometry":{"type":"LineString","coordinates":[[24.950695,60.174012],[24.951714,60.174038],[24.951931,60.174038],[24.95237,60.174056],[24.952464,60.174063],[24.952546,60.174073],[24.952611,60.17408],[24.952687,60.174084],[24.95278,60.174084]]},"properties":{"c":"tram"}},{"type":"Feature","geometry":{"type":"LineString","coordinates":[[24.939252,60.17798],[24.939056,60.178466]]},"properties":{"c":"rail"}},{"type":"Feature","geometry":{"type":"LineString","coordinates":[[24.939328,60.177592],[24.939252,60.17798]]},"properties":{"c":"rail"}},{"type":"Feature","geometry":{"type":"LineString","coordinates":[[24.940601,60.177124],[24.940364,60.177496]]},"properties":{"c":"rail"}},{"type":"Feature","geometry":{"type":"LineString","coordinates":[[24.948725,60.172845],[24.949075,60.173158]]},"properties":{"c":"tram"}},{"type":"Feature","geometry":{"type":"LineString","coordinates":[[24.950322,60.174759],[24.950343,60.174572],[24.950339,60.174513],[24.950328,60.17446],[24.950304,60.174415],[24.950267,60.174358]]},"properties":{"c":"tram"}},{"type":"Feature","geometry":{"type":"LineString","coordinates":[[24.95306,60.169069],[24.953128,60.169071]]},"properties":{"c":"tram"}},{"type":"Feature","geometry":{"type":"LineString","coordinates":[[24.95288,60.169091],[24.951988,60.169065],[24.951321,60.169053]]},"properties":{"c":"tram"}},{"type":"Feature","geometry":{"type":"LineString","coordinates":[[24.953278,60.169102],[24.953178,60.1691]]},"properties":{"c":"tram"}},{"type":"Feature","geometry":{"type":"LineString","coordinates":[[24.953409,60.169254],[24.953388,60.169227],[24.953355,60.169199],[24.953314,60.169173],[24.953276,60.169153],[24.953218,60.16913],[24.953153,60.169114],[24.95308,60.169102],[24.952964,60.169093]]},"properties":{"c":"tram"}},{"type":"Feature","geometry":{"type":"LineString","coordinates":[[24.940449,60.1686],[24.940491,60.168577],[24.940532,60.168558],[24.940585,60.168541],[24.940641,60.168526],[24.940687,60.168518],[24.940737,60.168514],[24.940803,60.168511],[24.940861,60.168513],[24.940926,60.168521],[24.940969,60.16853],[24.941009,60.16854],[24.941103,60.168569],[24.941196,60.168602]]},"properties":{"c":"tram"}},{"type":"Feature","geometry":{"type":"LineString","coordinates":[[24.943176,60.166739],[24.943208,60.16671],[24.943244,60.166673],[24.943262,60.16664],[24.943267,60.166607],[24.943257,60.166567],[24.943235,60.166535],[24.943201,60.166509],[24.943147,60.166477],[24.943086,60.166452],[24.943052,60.16644]]},"properties":{"c":"tram"}},{"type":"Feature","geometry":{"type":"LineString","coordinates":[[24.941196,60.168602],[24.941509,60.168717],[24.941572,60.168742],[24.941648,60.168764],[24.941717,60.16878],[24.941772,60.168789],[24.941848,60.168795],[24.941923,60.168798],[24.942905,60.16882],[24.944234,60.168851],[24.945551,60.168884],[24.945997,60.168895]]},"properties":{"c":"tram"}},{"type":"Feature","geometry":{"type":"LineString","coordinates":[[24.942868,60.166944],[24.943176,60.166739]]},"properties":{"c":"tram"}},{"type":"Feature","geometry":{"type":"LineString","coordinates":[[24.942202,60.167385],[24.942602,60.167122]]},"properties":{"c":"tram"}},{"type":"Feature","geometry":{"type":"LineString","coordinates":[[24.941832,60.165828],[24.942554,60.16531]]},"properties":{"c":"tram"}},{"type":"Feature","geometry":{"type":"LineString","coordinates":[[24.942249,60.167398],[24.942177,60.167443],[24.941999,60.167561]]},"properties":{"c":"tram"}},{"type":"Feature","geometry":{"type":"LineString","coordinates":[[24.943972,60.164862],[24.943955,60.164924],[24.943887,60.165344]]},"properties":{"c":"tram"}},{"type":"Feature","geometry":{"type":"LineString","coordinates":[[24.94314,60.165238],[24.943542,60.165381],[24.943653,60.16542]]},"properties":{"c":"tram"}},{"type":"Feature","geometry":{"type":"LineString","coordinates":[[24.942697,60.167108],[24.942628,60.167148],[24.942249,60.167398]]},"properties":{"c":"tram"}},{"type":"Feature","geometry":{"type":"LineString","coordinates":[[24.94194,60.167555],[24.942134,60.167426],[24.942202,60.167385]]},"properties":{"c":"tram"}},{"type":"Feature","geometry":{"type":"LineString","coordinates":[[24.942882,60.166975],[24.942937,60.166943],[24.943282,60.166717]]},"properties":{"c":"tram"}},{"type":"Feature","geometry":{"type":"LineString","coordinates":[[24.940966,60.168215],[24.941858,60.167608],[24.94194,60.167555]]},"properties":{"c":"tram"}},{"type":"Feature","geometry":{"type":"LineString","coordinates":[[24.943652,60.166499],[24.943623,60.166532],[24.943576,60.166566],[24.943231,60.166798]]},"properties":{"c":"tram"}},{"type":"Feature","geometry":{"type":"LineString","coordinates":[[24.941999,60.167561],[24.941903,60.167624],[24.941005,60.168232]]},"properties":{"c":"tram"}},{"type":"Feature","geometry":{"type":"LineString","coordinates":[[24.943282,60.166717],[24.943528,60.166553],[24.943576,60.166515],[24.943607,60.16648]]},"properties":{"c":"tram"}},{"type":"Feature","geometry":{"type":"LineString","coordinates":[[24.941496,60.16587],[24.941581,60.1659],[24.941837,60.165988],[24.941876,60.166001]]},"properties":{"c":"tram"}},{"type":"Feature","geometry":{"type":"LineString","coordinates":[[24.941467,60.165892],[24.93952,60.165213]]},"properties":{"c":"tram"}},{"type":"Feature","geometry":{"type":"LineString","coordinates":[[24.943792,60.165621],[24.943795,60.165603],[24.943827,60.165387],[24.943833,60.165343]]},"properties":{"c":"tram"}},{"type":"Feature","geometry":{"type":"LineString","coordinates":[[24.942929,60.166986],[24.942869,60.16702],[24.942728,60.16709],[24.942697,60.167108]]},"properties":{"c":"tram"}},{"type":"Feature","geometry":{"type":"LineString","coordinates":[[24.940714,60.168379],[24.940908,60.168253],[24.940966,60.168215]]},"properties":{"c":"tram"}},{"type":"Feature","geometry":{"type":"LineString","coordinates":[[24.943887,60.165344],[24.94388,60.165388],[24.943851,60.165571],[24.943845,60.165611]]},"properties":{"c":"tram"}},{"type":"Feature","geometry":{"type":"LineString","coordinates":[[24.944086,60.164378],[24.944075,60.164494],[24.944063,60.164574],[24.94404,60.164675],[24.943972,60.164862]]},"properties":{"c":"tram"}},{"type":"Feature","geometry":{"type":"LineString","coordinates":[[24.943673,60.165383],[24.943774,60.165431],[24.943796,60.16545],[24.943822,60.165479],[24.943844,60.16552],[24.943851,60.165571]]},"properties":{"c":"tram"}},{"type":"Feature","geometry":{"type":"LineString","coordinates":[[24.943607,60.16648],[24.943628,60.166446],[24.943648,60.166406],[24.943656,60.166369],[24.943665,60.166318],[24.943792,60.165621]]},"properties":{"c":"tram"}},{"type":"Feature","geometry":{"type":"LineString","coordinates":[[24.941005,60.168232],[24.940994,60.168239],[24.940948,60.168268],[24.940882,60.168316],[24.940777,60.168397],[24.940625,60.168521],[24.940574,60.168561],[24.940529,60.168593],[24.940434,60.168654]]},"properties":{"c":"tram"}},{"type":"Feature","geometry":{"type":"LineString","coordinates":[[24.943816,60.165794],[24.943718,60.166325],[24.943707,60.166377],[24.943697,60.166421],[24.943681,60.166459],[24.943652,60.166499]]},"properties":{"c":"tram"}},{"type":"Feature","geometry":{"type":"LineString","coordinates":[[24.943833,60.165343],[24.943897,60.164923],[24.943912,60.164859],[24.943977,60.164671],[24.943995,60.164576],[24.944012,60.164492],[24.944032,60.164378]]},"properties":{"c":"tram"}},{"type":"Feature","geometry":{"type":"LineString","coordinates":[[24.944206,60.164162],[24.944154,60.164213],[24.944124,60.16426],[24.944103,60.164309],[24.944093,60.164338],[24.944086,60.164378]]},"properties":{"c":"tram"}},{"type":"Feature","geometry":{"type":"LineString","coordinates":[[24.944032,60.164378],[24.944041,60.164338],[24.944052,60.164305],[24.944077,60.164252],[24.944109,60.164202]]},"properties":{"c":"tram"}},{"type":"Feature","geometry":{"type":"LineString","coordinates":[[24.943653,60.16542],[24.943761,60.16547],[24.943782,60.165488],[24.943816,60.165537],[24.943823,60.165562],[24.943826,60.165608],[24.943823,60.165657],[24.943822,60.165735]]},"properties":{"c":"tram"}},{"type":"Feature","geometry":{"type":"LineString","coordinates":[[24.941189,60.168636],[24.941104,60.168604],[24.941028,60.168581],[24.94097,60.168566],[24.940923,60.168558],[24.940874,60.168553],[24.94082,60.168551],[24.94076,60.168552],[24.940722,60.168555],[24.940673,60.168561],[24.940628,60.168571],[24.940575,60.168586],[24.940531,60.168603],[24.940482,60.168626],[24.940434,60.168654]]},"properties":{"c":"tram"}},{"type":"Feature","geometry":{"type":"LineString","coordinates":[[24.939171,60.165091],[24.937285,60.164434]]},"properties":{"c":"tram"}},{"type":"Feature","geometry":{"type":"LineString","coordinates":[[24.939553,60.165191],[24.941496,60.16587]]},"properties":{"c":"tram"}},{"type":"Feature","geometry":{"type":"LineString","coordinates":[[24.937255,60.164162],[24.937215,60.1642]]},"properties":{"c":"tram"}},{"type":"Feature","geometry":{"type":"LineString","coordinates":[[24.93952,60.165213],[24.939476,60.165198],[24.939242,60.165116],[24.939171,60.165091]]},"properties":{"c":"tram"}},{"type":"Feature","geometry":{"type":"LineString","coordinates":[[24.939201,60.165068],[24.939278,60.165095],[24.939512,60.165177],[24.939553,60.165191]]},"properties":{"c":"tram"}},{"type":"Feature","geometry":{"type":"LineString","coordinates":[[24.936097,60.171207],[24.936155,60.171182]]},"properties":{"c":"tram"}},{"type":"Feature","geometry":{"type":"LineString","coordinates":[[24.936155,60.171182],[24.936306,60.171127],[24.936459,60.171068]]},"properties":{"c":"tram"}},{"type":"Feature","geometry":{"type":"LineString","coordinates":[[24.937,60.170844],[24.937215,60.170705],[24.93818,60.170062]]},"properties":{"c":"tram"}},{"type":"Feature","geometry":{"type":"LineString","coordinates":[[24.935799,60.171499],[24.935558,60.17175]]},"properties":{"c":"tram"}},{"type":"Feature","geometry":{"type":"LineString","coordinates":[[24.936256,60.171212],[24.936133,60.171259],[24.936066,60.171289]]},"properties":{"c":"tram"}},{"type":"Feature","geometry":{"type":"LineString","coordinates":[[24.935991,60.171264],[24.936048,60.171231],[24.936097,60.171207]]},"properties":{"c":"tram"}},{"type":"Feature","geometry":{"type":"LineString","coordinates":[[24.93551,60.17174],[24.93575,60.17149],[24.935776,60.171462]]},"properties":{"c":"tram"}},{"type":"Feature","geometry":{"type":"LineString","coordinates":[[24.936459,60.171068],[24.936861,60.170914],[24.936949,60.170875],[24.937,60.170844]]},"properties":{"c":"tram"}},{"type":"Feature","geometry":{"type":"LineString","coordinates":[[24.935776,60.171462],[24.935879,60.171355],[24.935908,60.171326],[24.93595,60.171292],[24.935991,60.171264]]},"properties":{"c":"tram"}},{"type":"Feature","geometry":{"type":"LineString","coordinates":[[24.937054,60.170857],[24.936971,60.170913],[24.936882,60.170965],[24.936758,60.171022],[24.93655,60.171103],[24.936256,60.171212]]},"properties":{"c":"tram"}},{"type":"Feature","geometry":{"type":"LineString","coordinates":[[24.935635,60.171138],[24.935786,60.171139],[24.936092,60.171135],[24.936185,60.171129],[24.936255,60.171118],[24.936348,60.1711],[24.936459,60.171068]]},"properties":{"c":"tram"}},{"type":"Feature","geometry":{"type":"LineString","coordinates":[[24.936066,60.171289],[24.936016,60.171313],[24.935969,60.171341],[24.935933,60.171367],[24.935896,60.171403],[24.935872,60.171427],[24.935799,60.171499]]},"properties":{"c":"tram"}},{"type":"Feature","geometry":{"type":"LineString","coordinates":[[24.936414,60.171116],[24.936347,60.171132],[24.936266,60.171149],[24.93618,60.171159],[24.936086,60.171164],[24.935758,60.171165],[24.935409,60.171165]]},"properties":{"c":"tram"}},{"type":"Feature","geometry":{"type":"LineString","coordinates":[[24.939888,60.177109],[24.9398,60.177521]]},"properties":{"c":"rail"}},{"type":"Feature","geometry":{"type":"LineString","coordinates":[[24.940117,60.177864],[24.940066,60.17799]]},"properties":{"c":"rail"}},{"type":"Feature","geometry":{"type":"LineString","coordinates":[[24.938989,60.178424],[24.938915,60.178828]]},"properties":{"c":"rail"}},{"type":"Feature","geometry":{"type":"LineString","coordinates":[[24.941321,60.175403],[24.941297,60.175485],[24.941151,60.17597]]},"properties":{"c":"rail"}},{"type":"Feature","geometry":{"type":"LineString","coordinates":[[24.939151,60.17804],[24.939056,60.178466]]},"properties":{"c":"rail"}},{"type":"Feature","geometry":{"type":"LineString","coordinates":[[24.940534,60.172621],[24.940261,60.175127]]},"properties":{"c":"rail"}},{"type":"Feature","geometry":{"type":"LineString","coordinates":[[24.941074,60.176382],[24.940856,60.176731],[24.940601,60.177124]]},"properties":{"c":"rail"}},{"type":"Feature","geometry":{"type":"LineString","coordinates":[[24.940949,60.171398],[24.940758,60.173186],[24.940724,60.173497],[24.94057,60.174922]]},"properties":{"c":"rail"}},{"type":"Feature","geometry":{"type":"LineString","coordinates":[[24.940206,60.176322],[24.94019,60.176437],[24.940164,60.176659]]},"properties":{"c":"rail"}},{"type":"Feature","geometry":{"type":"LineString","coordinates":[[24.939712,60.175626],[24.939629,60.176427],[24.939496,60.177174]]},"properties":{"c":"rail"}},{"type":"Feature","geometry":{"type":"LineString","coordinates":[[24.940743,60.176336],[24.940438,60.177096]]},"properties":{"c":"rail"}},{"type":"Feature","geometry":{"type":"LineString","coordinates":[[24.940512,60.176702],[24.94035,60.177087]]},"properties":{"c":"rail"}},{"type":"Feature","geometry":{"type":"LineString","coordinates":[[24.940971,60.175985],[24.940827,60.176344],[24.940688,60.1767]]},"properties":{"c":"rail"}},{"type":"Feature","geometry":{"type":"LineString","coordinates":[[24.939952,60.172609],[24.93969,60.175075],[24.939685,60.175111]]},"properties":{"c":"rail"}},{"type":"Feature","geometry":{"type":"LineString","coordinates":[[24.940941,60.176738],[24.94077,60.176931],[24.940601,60.177124]]},"properties":{"c":"rail"}},{"type":"Feature","geometry":{"type":"LineString","coordinates":[[24.93934,60.175602],[24.939285,60.176101],[24.939184,60.177071]]},"properties":{"c":"rail"}},{"type":"Feature","geometry":{"type":"LineString","coordinates":[[24.940521,60.177508],[24.940296,60.177877],[24.940143,60.178239]]},"properties":{"c":"rail"}},{"type":"Feature","geometry":{"type":"LineString","coordinates":[[24.940039,60.175904],[24.93996,60.17671],[24.939888,60.177109]]},"properties":{"c":"rail"}},{"type":"Feature","geometry":{"type":"LineString","coordinates":[[24.939749,60.172605],[24.939486,60.17507],[24.939482,60.175109]]},"properties":{"c":"rail"}},{"type":"Feature","geometry":{"type":"LineString","coordinates":[[24.941297,60.175485],[24.941259,60.175549],[24.941037,60.175886],[24.940971,60.175985]]},"properties":{"c":"rail"}},{"type":"Feature","geometry":{"type":"LineString","coordinates":[[24.939916,60.1763],[24.939869,60.176705],[24.93979,60.177181],[24.939715,60.177517]]},"properties":{"c":"rail"}},{"type":"Feature","geometry":{"type":"LineString","coordinates":[[24.939664,60.172603],[24.939401,60.175069],[24.939396,60.175108]]},"properties":{"c":"rail"}},{"type":"Feature","geometry":{"type":"LineString","coordinates":[[24.94104,60.1714],[24.940845,60.173188],[24.940808,60.173497],[24.94064,60.175076]]},"properties":{"c":"rail"}},{"type":"Feature","geometry":{"type":"LineString","coordinates":[[24.941241,60.171403],[24.941051,60.173193],[24.941015,60.173499],[24.94081,60.175323]]},"properties":{"c":"rail"}},{"type":"Feature","geometry":{"type":"LineString","coordinates":[[24.940362,60.175109],[24.940353,60.175306],[24.940294,60.175848],[24.940206,60.176322]]},"properties":{"c":"rail"}},{"type":"Feature","geometry":{"type":"LineString","coordinates":[[24.940756,60.175656],[24.94063,60.175965],[24.940487,60.176307],[24.940025,60.177457],[24.939825,60.177949],[24.939725,60.178198]]},"properties":{"c":"rail"}},{"type":"Feature","geometry":{"type":"LineString","coordinates":[[24.941903,60.171418],[24.941712,60.173209],[24.941681,60.173503],[24.941506,60.175052],[24.941468,60.175207],[24.941381,60.175499]]},"properties":{"c":"rail"}},{"type":"Feature","geometry":{"type":"LineString","coordinates":[[24.941411,60.176007],[24.94116,60.176394],[24.940941,60.176738]]},"properties":{"c":"rail"}},{"type":"Feature","geometry":{"type":"LineString","coordinates":[[24.940756,60.175656],[24.940698,60.17597],[24.940576,60.176319],[24.940422,60.17669]]},"properties":{"c":"rail"}},{"type":"Feature","geometry":{"type":"LineString","coordinates":[[24.939056,60.178466],[24.938915,60.178828]]},"properties":{"c":"rail"}},{"type":"Feature","geometry":{"type":"LineString","coordinates":[[24.939274,60.17861],[24.93923,60.178716]]},"properties":{"c":"rail"}},{"type":"Feature","geometry":{"type":"LineString","coordinates":[[24.940066,60.17799],[24.939825,60.178584]]},"properties":{"c":"rail"}},{"type":"Feature","geometry":{"type":"LineString","coordinates":[[24.940197,60.177474],[24.940135,60.177624]]},"properties":{"c":"rail"}},{"type":"Feature","geometry":{"type":"LineString","coordinates":[[24.940206,60.177873],[24.940149,60.178009]]},"properties":{"c":"rail"}},{"type":"Feature","geometry":{"type":"LineString","coordinates":[[24.940143,60.178239],[24.940072,60.178416]]},"properties":{"c":"rail"}},{"type":"Feature","geometry":{"type":"LineString","coordinates":[[24.939725,60.178198],[24.93966,60.178347]]},"properties":{"c":"rail"}},{"type":"Feature","geometry":{"type":"LineString","coordinates":[[24.9404,60.177806],[24.940057,60.178675]]},"properties":{"c":"rail"}},{"type":"Feature","geometry":{"type":"LineString","coordinates":[[24.939328,60.177592],[24.939151,60.17804],[24.938989,60.178424]]},"properties":{"c":"rail"}},{"type":"Feature","geometry":{"type":"LineString","coordinates":[[24.938915,60.178828],[24.938859,60.178963],[24.938839,60.179015]]},"properties":{"c":"rail"}},{"type":"Feature","geometry":{"type":"LineString","coordinates":[[24.938989,60.178424],[24.938828,60.178826],[24.938775,60.178954],[24.938755,60.179008]]},"properties":{"c":"rail"}},{"type":"Feature","geometry":{"type":"LineString","coordinates":[[24.941244,60.170386],[24.941531,60.170393],[24.942535,60.170418],[24.943012,60.170429],[24.944034,60.170454],[24.944106,60.170458],[24.944188,60.170466],[24.944282,60.170479],[24.944468,60.170508]]},"properties":{"c":"tram"}},{"type":"Feature","geometry":{"type":"LineString","coordinates":[[24.94169,60.175813],[24.941655,60.17589],[24.941567,60.176028],[24.941407,60.17622],[24.941245,60.176404],[24.940941,60.176738]]},"properties":{"c":"rail"}},{"type":"Feature","geometry":{"type":"LineString","coordinates":[[24.941538,60.175805],[24.941411,60.176007]]},"properties":{"c":"rail"}},{"type":"Feature","geometry":{"type":"LineString","coordinates":[[24.941442,60.175796],[24.941335,60.175991],[24.941074,60.176382]]},"properties":{"c":"rail"}},{"type":"Feature","geometry":{"type":"LineString","coordinates":[[24.941381,60.175499],[24.941151,60.17597]]},"properties":{"c":"rail"}},{"type":"Feature","geometry":{"type":"LineString","coordinates":[[24.94111,60.175637],[24.940971,60.175985]]},"properties":{"c":"rail"}},{"type":"Feature","geometry":{"type":"LineString","coordinates":[[24.941009,60.175671],[24.940899,60.175979],[24.940743,60.176336]]},"properties":{"c":"rail"}},{"type":"Feature","geometry":{"type":"LineString","coordinates":[[24.94078,60.175999],[24.94066,60.176327],[24.940512,60.176702]]},"properties":{"c":"rail"}},{"type":"Feature","geometry":{"type":"LineString","coordinates":[[24.94081,60.175323],[24.940797,60.175441],[24.940756,60.175656]]},"properties":{"c":"rail"}},{"type":"Feature","geometry":{"type":"LineString","coordinates":[[24.94057,60.174922],[24.940555,60.175061]]},"properties":{"c":"rail"}},{"type":"Feature","geometry":{"type":"LineString","coordinates":[[24.94064,60.175076],[24.940587,60.175573]]},"properties":{"c":"rail"}},{"type":"Feature","geometry":{"type":"LineString","coordinates":[[24.940615,60.172623],[24.94037,60.174934],[24.940362,60.175109]]},"properties":{"c":"rail"}},{"type":"Feature","geometry":{"type":"LineString","coordinates":[[24.940261,60.175127],[24.940238,60.1753]]},"properties":{"c":"rail"}},{"type":"Feature","geometry":{"type":"LineString","coordinates":[[24.94033,60.172617],[24.940076,60.175083],[24.940077,60.175253]]},"properties":{"c":"rail"}},{"type":"Feature","geometry":{"type":"LineString","coordinates":[[24.940239,60.172615],[24.939981,60.175081],[24.939975,60.175115]]},"properties":{"c":"rail"}},{"type":"Feature","geometry":{"type":"LineString","coordinates":[[24.939685,60.175111],[24.939672,60.175213]]},"properties":{"c":"rail"}},{"type":"Feature","geometry":{"type":"LineString","coordinates":[[24.939754,60.17526],[24.939712,60.175626]]},"properties":{"c":"rail"}},{"type":"Feature","geometry":{"type":"LineString","coordinates":[[24.939482,60.175109],[24.939471,60.175208]]},"properties":{"c":"rail"}},{"type":"Feature","geometry":{"type":"LineString","coordinates":[[24.939396,60.175108],[24.939382,60.175209],[24.93934,60.175602]]},"properties":{"c":"rail"}},{"type":"Feature","geometry":{"type":"LineString","coordinates":[[24.939071,60.177955],[24.938989,60.178424]]},"properties":{"c":"rail"}},{"type":"Feature","geometry":{"type":"LineString","coordinates":[[24.939129,60.17757],[24.939071,60.177955]]},"properties":{"c":"rail"}},{"type":"Feature","geometry":{"type":"LineString","coordinates":[[24.939184,60.177071],[24.939132,60.177265],[24.939069,60.177474],[24.93904,60.177562]]},"properties":{"c":"rail"}},{"type":"Feature","geometry":{"type":"LineString","coordinates":[[24.93923,60.178716],[24.939118,60.178986],[24.939098,60.179034]]},"properties":{"c":"rail"}},{"type":"Feature","geometry":{"type":"LineString","coordinates":[[24.939712,60.175626],[24.939747,60.176017]]},"properties":{"c":"rail"}},{"type":"Feature","geometry":{"type":"LineString","coordinates":[[24.939391,60.177238],[24.939328,60.177592]]},"properties":{"c":"rail"}},{"type":"Feature","geometry":{"type":"LineString","coordinates":[[24.939672,60.175213],[24.939631,60.175613]]},"properties":{"c":"rail"}},{"type":"Feature","geometry":{"type":"LineString","coordinates":[[24.940197,60.177474],[24.939943,60.17785]]},"properties":{"c":"rail"}},{"type":"Feature","geometry":{"type":"LineString","coordinates":[[24.940438,60.177096],[24.940283,60.177485]]},"properties":{"c":"rail"}},{"type":"Feature","geometry":{"type":"LineString","coordinates":[[24.940438,60.177096],[24.940313,60.177279],[24.940197,60.177474]]},"properties":{"c":"rail"}},{"type":"Feature","geometry":{"type":"LineString","coordinates":[[24.940688,60.1767],[24.940438,60.177096]]},"properties":{"c":"rail"}},{"type":"Feature","geometry":{"type":"LineString","coordinates":[[24.940941,60.176738],[24.940688,60.177117],[24.940521,60.177508]]},"properties":{"c":"rail"}},{"type":"Feature","geometry":{"type":"LineString","coordinates":[[24.940521,60.177508],[24.9404,60.177806]]},"properties":{"c":"rail"}},{"type":"Feature","geometry":{"type":"LineString","coordinates":[[24.940143,60.178239],[24.940057,60.178675]]},"properties":{"c":"rail"}},{"type":"Feature","geometry":{"type":"LineString","coordinates":[[24.94035,60.177087],[24.940313,60.177279],[24.940283,60.177485]]},"properties":{"c":"rail"}},{"type":"Feature","geometry":{"type":"LineString","coordinates":[[24.94035,60.177087],[24.940197,60.177474]]},"properties":{"c":"rail"}},{"type":"Feature","geometry":{"type":"LineString","coordinates":[[24.939357,60.178613],[24.939184,60.179045]]},"properties":{"c":"rail"}},{"type":"Feature","geometry":{"type":"LineString","coordinates":[[24.939357,60.178613],[24.939311,60.178841],[24.939268,60.179054]]},"properties":{"c":"rail"}},{"type":"Feature","geometry":{"type":"LineString","coordinates":[[24.939433,60.17823],[24.939274,60.17861]]},"properties":{"c":"rail"}},{"type":"Feature","geometry":{"type":"LineString","coordinates":[[24.940206,60.176322],[24.940064,60.176665]]},"properties":{"c":"rail"}},{"type":"Feature","geometry":{"type":"LineString","coordinates":[[24.939888,60.177109],[24.939715,60.177517]]},"properties":{"c":"rail"}},{"type":"Feature","geometry":{"type":"LineString","coordinates":[[24.93973,60.177915],[24.939508,60.178246],[24.939393,60.178426],[24.939274,60.17861]]},"properties":{"c":"rail"}},{"type":"Feature","geometry":{"type":"LineString","coordinates":[[24.93973,60.177915],[24.939602,60.178224],[24.939449,60.178619],[24.939268,60.179054]]},"properties":{"c":"rail"}},{"type":"Feature","geometry":{"type":"LineString","coordinates":[[24.940587,60.175573],[24.940559,60.175812]]},"properties":{"c":"rail"}},{"type":"Feature","geometry":{"type":"LineString","coordinates":[[24.940064,60.176665],[24.939888,60.177109]]},"properties":{"c":"rail"}},{"type":"Feature","geometry":{"type":"LineString","coordinates":[[24.940064,60.176665],[24.93999,60.177078]]},"properties":{"c":"rail"}},{"type":"Feature","geometry":{"type":"LineString","coordinates":[[24.94033,60.176285],[24.940164,60.176659],[24.93999,60.177078]]},"properties":{"c":"rail"}},{"type":"Feature","geometry":{"type":"LineString","coordinates":[[24.940422,60.17669],[24.940271,60.177068],[24.940104,60.177465],[24.939943,60.17785]]},"properties":{"c":"rail"}},{"type":"Feature","geometry":{"type":"LineString","coordinates":[[24.940422,60.17669],[24.940385,60.176895],[24.94035,60.177087]]},"properties":{"c":"rail"}},{"type":"Feature","geometry":{"type":"LineString","coordinates":[[24.940283,60.177485],[24.940241,60.177674],[24.940206,60.177873]]},"properties":{"c":"rail"}},{"type":"Feature","geometry":{"type":"LineString","coordinates":[[24.938838,60.170009],[24.939136,60.170117]]},"properties":{"c":"tram"}},{"type":"Feature","geometry":{"type":"LineString","coordinates":[[24.939094,60.170136],[24.93881,60.170031]]},"properties":{"c":"tram"}},{"type":"Feature","geometry":{"type":"LineString","coordinates":[[24.93818,60.170062],[24.938196,60.170051]]},"properties":{"c":"tram"}}]}