{"type":"FeatureCollection","features":[{"type":"Feature","geometry":{"type":"Polygon","coordinates":[[[24.945694,60.174898],[24.9457,60.174796],[24.945795,60.174797],[24.945789,60.1749],[24.945694,60.174898]]]},"properties":{}},{"type":"Feature","geometry":{"type":"Polygon","coordinates":[[[24.93668,60.172357],[24.936381,60.172586],[24.936331,60.172552],[24.936314,60.172571],[24.936368,60.172599],[24.936716,60.172619],[24.936768,60.1724],[24.93668,60.172357]]]},"properties":{}},{"type":"Feature","geometry":{"type":"Polygon","coordinates":[[[24.936215,60.172117],[24.936245,60.172131],[24.93635,60.172185],[24.936479,60.17171],[24.936331,60.1717],[24.936215,60.172117]]]},"properties":{}},{"type":"Feature","geometry":{"type":"Polygon","coordinates":[[[24.936965,60.178438],[24.936676,60.178224],[24.936298,60.178045],[24.936089,60.17792],[24.935999,60.177866],[24.935932,60.177812],[24.935882,60.177771],[24.935641,60.177523],[24.935419,60.177403],[24.937081,60.179101],[24.937078,60.178987],[24.937178,60.178845],[24.937124,60.178644],[24.936965,60.178438]]]},"properties":{}},{"type":"Feature","geometry":{"type":"Polygon","coordinates":[[[24.944097,60.173712],[24.944101,60.173188],[24.94342,60.173173],[24.943322,60.173696],[24.943459,60.173699],[24.943452,60.173781],[24.943947,60.173791],[24.943951,60.173709],[24.944097,60.173712]]]},"properties":{}},{"type":"Feature","geometry":{"type":"Polygon","coordinates":[[[24.943586,60.165052],[24.94363,60.165052],[24.943639,60.164968],[24.943593,60.164968],[24.943586,60.165052]]]},"properties":{}},{"type":"Feature","geometry":{"type":"Polygon","coordinates":[[[24.944847,60.166602],[24.944849,60.166544],[24.944913,60.166545],[24.944911,60.166602],[24.944847,60.166602]]]},"properties":{}},{"type":"Feature","geometry":{"type":"Polygon","coordinates":[[[24.949822,60.167719],[24.949825,60.16769],[24.949972,60.167693],[24.949969,60.167722],[24.949822,60.167719]]]},"properties":{}},{"type":"Feature","geometry":{"type":"Polygon","coordinates":[[[24.950579,60.167741],[24.950581,60.167712],[24.95073,60.167715],[24.950727,60.167744],[24.950579,60.167741]]]},"properties":{}},{"type":"Feature","geometry":{"type":"Polygon","coordinates":[[[24.945684,60.175124],[24.945669,60.175118],[24.945663,60.175111],[24.945662,60.175101],[24.945668,60.175092],[24.945684,60.175089],[24.945685,60.175082],[24.945698,60.175081],[24.945711,60.175072],[24.945732,60.17507],[24.945753,60.175074],[24.945768,60.175081],[24.94578,60.175081],[24.945778,60.175087],[24.945792,60.175092],[24.9458,60.175098],[24.945801,60.175106],[24.945795,60.175115],[24.945789,60.175121],[24.94578,60.175123],[24.945778,60.175129],[24.945767,60.175129],[24.945756,60.175136],[24.945739,60.17514],[24.945722,60.17514],[24.945707,60.175136],[24.945698,60.17513],[24.945683,60.17513],[24.945684,60.175124]]]},"properties":{}},{"type":"Feature","geometry":{"type":"Polygon","coordinates":[[[24.951304,60.167584],[24.951308,60.167599],[24.95132,60.167612],[24.951339,60.167623],[24.951365,60.16763],[24.951394,60.167633],[24.951423,60.167632],[24.95145,60.167625],[24.951472,60.167616],[24.951487,60.167603],[24.951493,60.167589],[24.95149,60.167574],[24.951478,60.167561],[24.951458,60.16755],[24.951432,60.167542],[24.951403,60.167539],[24.951374,60.167541],[24.951347,60.167547],[24.951325,60.167557],[24.95131,60.16757],[24.951304,60.167584]]]},"properties":{}},{"type":"Feature","geometry":{"type":"Polygon","coordinates":[[[24.945782,60.174612],[24.945778,60.174668],[24.945884,60.174661],[24.945962,60.174643],[24.946004,60.174625],[24.946021,60.174605],[24.945997,60.174584],[24.945958,60.174567],[24.94592,60.174563],[24.945894,60.174565],[24.945845,60.174588],[24.945832,60.174596],[24.945805,60.17461],[24.945782,60.174612]]]},"properties":{}},{"type":"Feature","geometry":{"type":"Polygon","coordinates":[[[24.945588,60.174551],[24.945562,60.174545],[24.945546,60.174546],[24.945501,60.174552],[24.94547,60.17458],[24.945467,60.17461],[24.94549,60.174627],[24.945534,60.174641],[24.945646,60.174663],[24.945722,60.174668],[24.945728,60.174609],[24.945658,60.174593],[24.945612,60.17456],[24.945588,60.174551]]]},"properties":{}},{"type":"Feature","geometry":{"type":"Polygon","coordinates":[[[24.947877,60.175624],[24.947851,60.175625],[24.94783,60.175629],[24.94782,60.175635],[24.947819,60.175644],[24.947826,60.17565],[24.947839,60.175651],[24.947857,60.175652],[24.947878,60.175647],[24.947883,60.175643],[24.947893,60.175632],[24.94789,60.175626],[24.947877,60.175624]]]},"properties":{}}]}